PK,NOMBRE,DESCRIPCION,ACCESIBILIDAD,CONTENT-URL,DIRECCION,NUM,PLANTA,ORIENTACION,LOCALIDAD,PROVINCIA,CODIGO-POSTAL,COD-BARRIO,BARRIO,COD-DISTRITO,DISTRITO,COORDENADA-X,COORDENADA-Y,LATITUD,LONGITUD,TELEFONO,EMAIL
11544480,Aparcamiento mixto. Alcántara,Plazas: 121 públicas y 254 para residentes Abierto 24 horas  Titularidad: Ayuntamiento de Madrid,0,http://www.madrid.es/sites/v/index.jsp?vgnextchannel=bfa48ab43d6bb410VgnVCM100000171f5a0aRCRD&vgnextoid=79df252aa267d710VgnVCM1000001d4a900aRCRD,CALLE ALCANTARA,26,,,MADRID,MADRID,28006,2,GOYA,4,SALAMANCA,442847,4475502,40.428193768950756,-3.673778093084516,,
13470,Aparcamiento mixto. Arquitecto Ribera,Plazas: 318 públicas y 298 para residentes Abierto 24 horas Admite Tarjeta BonoRed  Titularidad: Ayuntamiento de Madrid,0,http://www.madrid.es/sites/v/index.jsp?vgnextchannel=bfa48ab43d6bb410VgnVCM100000171f5a0aRCRD&vgnextoid=a50e15cbed51c010VgnVCM2000000c205a0aRCRD,CALLE BARCELO,2,,,MADRID,MADRID,28004,4,JUSTICIA,1,CENTRO,440589,4475306,40.426273740022,-3.70037418702346,,
59060,Aparcamiento mixto. Avenida de América (intercambiador),"Información sobre accesibilidad:  Tiene escaleras adaptadas Ascensor de salida a la calle Avenida de América, 9 Tiene aseos accesibles Plazas para minusválidos    Plazas: 261 públicas y 395 para residentes  Abierto 24 horas   Titularidad: Ayuntamiento de Madrid",0,http://www.madrid.es/sites/v/index.jsp?vgnextchannel=bfa48ab43d6bb410VgnVCM100000171f5a0aRCRD&vgnextoid=3f3bc2c6e051c010VgnVCM2000000c205a0aRCRD,AVENIDA AMERICA,9,,,MADRID,MADRID,28002,2,PROSPERIDAD,5,CHAMARTIN,442596,4476612,40.4381779662151,-3.67683406459837,917376257,intercambiador@intercambiador.net
5898885,Aparcamiento mixto. Avenida de Portugal,"Plazas: 428 públicas y 445 para residentes  Informacion sobre accesibilidad:  No tiene escalera adaptada Tiene ascensor de salida a Avenida de Portugal, s/n 1 aseo accesible (nivel-3) Plazas para minusválidos residentes: 20   Abierto 24 horas  Titularidad: Ayuntamiento de Madrid  Gestión: Empresa Municipal de Transportes (EMT) (más información)",0,http://www.madrid.es/sites/v/index.jsp?vgnextchannel=bfa48ab43d6bb410VgnVCM100000171f5a0aRCRD&vgnextoid=c313e26f2b3fc210VgnVCM2000000c205a0aRCRD,AVENIDA PORTUGAL,155,,,MADRID,MADRID,28011,2,PUERTA DEL ANGEL,10,LATINA,437376,4473663,40.4112391063366,-3.73808787568741,917877292,aparcamientos@emtmadrid.es
13475,Aparcamiento mixto. Brasil,Plazas: 226 públicas y 402 para residentes Abierto 24 horas  Titularidad: Ayuntamiento de Madrid,0,http://www.madrid.es/sites/v/index.jsp?vgnextchannel=bfa48ab43d6bb410VgnVCM100000171f5a0aRCRD&vgnextoid=fb2e15cbed51c010VgnVCM2000000c205a0aRCRD,CALLE SAN GERMAN,7,,,MADRID,MADRID,28020,2,CUATRO CAMINOS,6,TETUAN,441198,4478611,40.4560925110791,-3.69349688854822,,
183747,Aparcamiento mixto. Casino de la Reina,Plazas: 135 públicas y 449 para residentes Abierto 24 horas  Titularidad: Ayuntamiento de Madrid,0,http://www.madrid.es/sites/v/index.jsp?vgnextchannel=bfa48ab43d6bb410VgnVCM100000171f5a0aRCRD&vgnextoid=c5f4bdc85c01c010VgnVCM2000000c205a0aRCRD,CALLE CASINO,3,,,MADRID,MADRID,28005,2,EMBAJADORES,1,CENTRO,440274,4473180,40.40709468568204,-3.7038875277131464,,
13477,Aparcamiento mixto. Condesa de Gavia,Plazas: 146 públicas y 79 para residentes  El horario de apertura para la parte del aparcamiento rotacional es de lunes a viernes de 9:00h a 20:40h. Sábados de 9:00 a 14:30h.  Titularidad: Ayuntamiento de Madrid,0,http://www.madrid.es/sites/v/index.jsp?vgnextchannel=bfa48ab43d6bb410VgnVCM100000171f5a0aRCRD&vgnextoid=7e5f15cbed51c010VgnVCM2000000c205a0aRCRD,PLAZA CONDESA DE GAVIA,2,,,MADRID,MADRID,28020,2,CUATRO CAMINOS,6,TETUAN,440464,4477836,40.44905426535144,-3.7020861495783635,,
81736,Aparcamiento mixto. Corona Boreal,Plazas: 125 públicas y 125 para residentes  Información sobre accesibilidad:  No tiene escaleras adaptadas Ascensor de salida a la calle Pérez de Victoria 2 aseos accesibles (1&amp;ordf; planta) Plazas para minusválidos residentes: 3    Abierto 24 horas   Titularidad: Ayuntamiento de Madrid,1,http://www.madrid.es/sites/v/index.jsp?vgnextchannel=bfa48ab43d6bb410VgnVCM100000171f5a0aRCRD&vgnextoid=db8bc2c6e051c010VgnVCM2000000c205a0aRCRD,CALLE PEREZ DE VICTORIA,2,,,MADRID,MADRID,28023,7,ARAVACA,9,MONCLOA-ARAVACA,433515,4478978,40.4588137783281,-3.78414489510692,913573714,parkingcoronaboreal@hotmail.com
183748,Aparcamiento mixto. Daoíz y Velarde,Plazas: 235 públicas y 253 para residentes Abierto 24 horas  Titularidad: Ayuntamiento de Madrid,0,http://www.madrid.es/sites/v/index.jsp?vgnextchannel=bfa48ab43d6bb410VgnVCM100000171f5a0aRCRD&vgnextoid=0f85bdc85c01c010VgnVCM2000000c205a0aRCRD,AVENIDA CIUDAD DE BARCELONA,156,,,MADRID,MADRID,28007,1,PACIFICO,3,RETIRO,442498,4472658,40.40255344121901,-3.67763144165245,,
44724,Aparcamiento mixto. Díaz Porlier,Plazas: 203 públicas y 421 para residentes Abierto 24 horas  Titularidad: Ayuntamiento de Madrid,0,http://www.madrid.es/sites/v/index.jsp?vgnextchannel=bfa48ab43d6bb410VgnVCM100000171f5a0aRCRD&vgnextoid=9e69946be351c010VgnVCM2000000c205a0aRCRD,CALLE DIEGO DE LEON,64,,,MADRID,MADRID,28006,5,LISTA,4,SALAMANCA,442707,4476204,40.434510199279615,-3.6754840133107027,914017374,
36269,Aparcamiento mixto. Encuentro,Plazas: 104 públicas y 550 para residentes Abierto 24 horas  Titularidad: Ayuntamiento de Madrid,0,http://www.madrid.es/sites/v/index.jsp?vgnextchannel=bfa48ab43d6bb410VgnVCM100000171f5a0aRCRD&vgnextoid=c3e12c798651c010VgnVCM2000000c205a0aRCRD,PLAZA ENCUENTRO,5,,,MADRID,MADRID,28030,4,MEDIA LEGUA,14,MORATALAZ,444728,4473010,40.4058768185719,--3.65138632197171,913283680,
13464,Aparcamiento mixto. Felipe II,Plazas: 1175 públicas rotacionales y 615 para residentes  Información sobre accesibilidad:   No tiene escaleras adaptadas Ascensor de salida a la plaza de Felipe II Aseo accesible (1&amp;ordf; planta) Plazas para minusválidos residentes:23   Abierto 24 horas   Admite tarjeta BonoRed   Titularidad: Ayuntamiento de Madrid,0,http://www.madrid.es/sites/v/index.jsp?vgnextchannel=bfa48ab43d6bb410VgnVCM100000171f5a0aRCRD&vgnextoid=425e15cbed51c010VgnVCM2000000c205a0aRCRD,CALLE GOYA,88,,,MADRID,MADRID,28001,1,RECOLETOS,4,SALAMANCA,441502,4475253,40.4242207643363,-3.67342185936768,,
24809,Aparcamiento mixto. Fernández Shaw,Plazas: 245 públicas y 350 para residentes Abierto 24 horas  Titularidad: Ayuntamiento de Madrid,0,http://www.madrid.es/sites/v/index.jsp?vgnextchannel=bfa48ab43d6bb410VgnVCM100000171f5a0aRCRD&vgnextoid=0e6e6545f951c010VgnVCM2000000c205a0aRCRD,CALLE CARLOS Y GUILLERMO FERNANDEZ SHAW,1,,,MADRID,MADRID,28007,2,ADELFAS,3,RETIRO,443245,4472913,40.40489977502076,-3.668850975462272,,
13462,Aparcamiento mixto. Fuencarral,"Plazas: 410 públicas y 111 para residentes  Información sobre accesibilidad:   No tiene escalera adaptada 1 ascensor con salida a la calle Fuencarral, 117 1 aseo accesible en la 1&amp;ordf; planta Plazas para minusválidos residentes: 7   Abierto 24 horas   Admite Tarjeta BonoRed   Titularidad: Ayuntamiento de Madrid",0,http://www.madrid.es/sites/v/index.jsp?vgnextchannel=bfa48ab43d6bb410VgnVCM100000171f5a0aRCRD&vgnextoid=987e15cbed51c010VgnVCM2000000c205a0aRCRD,CALLE FUENCARRAL,121,,,MADRID,MADRID,28010,3,TRAFALGAR,7,CHAMBERI,440387,4475680,40.4296270729669,-3.70279096159205,915911200,aparcamientos@emtmadrid.es
36270,Aparcamiento mixto. Hernani,"Plazas: 115 públicas y 380 residentes  Información sobre accesibilidad:  No tiene escaleras adptadas Ascensor de salida a la calle Hernai, 68 1 aseo accesible en 1&amp;ordf; planta Plazas para minusválidos residentes. 3    Abierto 24 horas   Titularidad: Ayuntamiento de Madrid",0,http://www.madrid.es/sites/v/index.jsp?vgnextchannel=bfa48ab43d6bb410VgnVCM100000171f5a0aRCRD&vgnextoid=d0712c798651c010VgnVCM2000000c205a0aRCRD,CALLE HERNANI,79,,,MADRID,MADRID,28020,2,CUATRO CAMINOS,6,TETUAN,440843,4477735,40.44817621258857,-3.6976113125092684,915545326,
13459,Aparcamiento mixto. Jacinto Benavente,"Plazas: 285 públicas y 110 para residentes.  Plazas motos: 7.  Información sobre accesibilidad:   No tiene escaleras adaptadas Ascensor con salida a la calle Jacinto benavente, s/n 1 aseo accesible Plaza para minusválidos residentes: 16  Abierto 24 horas  Titularidad:  Ayuntamiento de Madrid   Gestión: Empresa Municipal de Transportes (EMT) (más información)",0,http://www.madrid.es/sites/v/index.jsp?vgnextchannel=bfa48ab43d6bb410VgnVCM100000171f5a0aRCRD&vgnextoid=c48f15cbed51c010VgnVCM2000000c205a0aRCRD,PLAZA JACINTO BENAVENTE,6,,,MADRID,MADRID,28012,3,CORTES,1,CENTRO,440329,4473995,40.4144481124785,-3.70332121750772,917877292,aparcamientos@emtmadrid.es
13479,Aparcamiento mixto. José Castán Tobeñas,Plazas: 226 públicas y 43 para residentes  Información sobre accesibilidad:  No tiene escaleras adaptadas No disponde ascensor No disponde de aseos accesible Plazas para minusválidos residentes: 5    Abierto 24 horas   Titularidad: Ayuntamiento de Madrid,0,http://www.madrid.es/sites/v/index.jsp?vgnextchannel=bfa48ab43d6bb410VgnVCM100000171f5a0aRCRD&vgnextoid=35ce15cbed51c010VgnVCM2000000c205a0aRCRD,CALLE POETA JOAN MARAGALL,57,,,MADRID,MADRID,28020,3,CASTILLEJOS,6,TETUAN,441369,4479549,40.4645483266289,-3.69157198480319,915707612,aeuropeos@gmail.com
6143690,Aparcamiento mixto. Marqués de Salamanca,Plazas: 356 públicas y 70 para residentes  Información sobre accesibilidad:   No tiene escaleras adaptadas 1 ascensor en la salida a la plaza del Marqués de Salamanca 1 aseo accesible en 2&amp;ordf;  planta Plaza para minusválidos residentes: 14   Abierto 24 horas   Titularidad: Ayuntamiento de Madrid,0,http://www.madrid.es/sites/v/index.jsp?vgnextchannel=bfa48ab43d6bb410VgnVCM100000171f5a0aRCRD&vgnextoid=cb5b1b2bb5b61310VgnVCM2000000c205a0aRCRD,PLAZA MARQUES DE SALAMANCA,,,,MADRID,MADRID,28006,6,CASTELLANA,4,SALAMANCA,442381,4475761,40.4304997416021,-3.67929374257782,917877292,aparcamientos@emtmadrid.es
182188,Aparcamiento mixto. Miguel Yuste,Plazas: 168  públicas y 68 para residentes Abierto: 24 horas Admite Tarjeta BonoRed  Titularidad: Ayuntamiento de Madrid,0,http://www.madrid.es/sites/v/index.jsp?vgnextchannel=bfa48ab43d6bb410VgnVCM100000171f5a0aRCRD&vgnextoid=1c15bdc85c01c010VgnVCM2000000c205a0aRCRD,CALLE MIGUEL YUSTE,64,,,MADRID,MADRID,28037,1,SIMANCAS,20,SAN BLAS-CANILLEJAS,447200,4476147,40.43429571608524,-3.622514147448957,,
13465,Aparcamiento mixto. Montalbán,Plazas:   146 Residenciales 130 Rotacionales    Abierto 24 horas    Titularidad:  Ayuntamiento de Madrid   Gestión: Empresa Municipal de Transportes (EMT) (más información),1,http://www.madrid.es/sites/v/index.jsp?vgnextchannel=bfa48ab43d6bb410VgnVCM100000171f5a0aRCRD&vgnextoid=f0967339ae51c010VgnVCM2000000c205a0aRCRD,CALLE MONTALBAN,4,OT,,MADRID,MADRID,28014,5,LOS JERONIMOS,3,RETIRO,441381,4474402,40.4181859174944,-3.69095813503217,,
5517342,Aparcamiento mixto. Orense,Plazas: 129 públicas y 663 para residentes  Información sobre accesibilidad:  1 escalera adaptada No dispone de ascensor 1 aseo accesible Plaza para minusválidos residentes: 5    Abierto 24 horas   Titularidad: Ayuntamiento de Madrid  Gestión: Empresa Municipal de Transportes (EMT) (más información),0,http://www.madrid.es/sites/v/index.jsp?vgnextchannel=bfa48ab43d6bb410VgnVCM100000171f5a0aRCRD&vgnextoid=eee35ed15bb95210VgnVCM2000000c205a0aRCRD,AVENIDA BRASIL,2,,,MADRID,MADRID,28020,2,CUATRO CAMINOS,6,TETUAN,441141,4478277,40.4530722916738,-3.6941384720253,,aparcamientos@emtmadrid.es
52114,Aparcamiento mixto. Pedro Zerolo 'antes denominado Vázquez de Mella',Plazas: 107 públicas y 261 para residentes.  Plazas motos: 6.  Información sobre accesibilidad:  No tiene escaleras adaptadas 1 ascensor con salida a la Plaza de Vazquez de Mella 1 aseo accesible Plaza para minusválidos residentes: 7    Abierto 24 horas   Titularidad: Ayuntamiento de Madrid  Gestión: Empresa Municipal de Transportes (EMT) (más información)  Teléfonos: Residentes - 91 522 50 29          Rotacional -  91 532 19 10,0,http://www.madrid.es/sites/v/index.jsp?vgnextchannel=bfa48ab43d6bb410VgnVCM100000171f5a0aRCRD&vgnextoid=e499946be351c010VgnVCM2000000c205a0aRCRD,PLAZA PEDRO ZEROLO,1,,,MADRID,MADRID,28004,4,JUSTICIA,13,CENTRO,440675,4474698,40.4208058791525,-3.69930167470253,,aparcamientos@emtmadrid.es
33440,Aparcamiento mixto. Plaza de Oriente,Plazas: 242 públicas rotacionales (30 plazas para autobuses) y 511 para residentes Abierto 24 horas Admite Tarjeta BonoRed Este PAR está adherido a la zona de APR  Titularidad: Ayuntamiento de Madrid,0,http://www.madrid.es/sites/v/index.jsp?vgnextchannel=bfa48ab43d6bb410VgnVCM100000171f5a0aRCRD&vgnextoid=7db12c798651c010VgnVCM2000000c205a0aRCRD,PLAZA ORIENTE,9,,,MADRID,MADRID,28013,1,PALACIO,1,CENTRO,439597,4474441,40.41840695632423,-3.7119903936183274,,
11544439,Aparcamiento mixto. Plaza de Santo Domingo,"Plazas Totales: 320 plazas,  Plazas motos: 16.",0,http://www.madrid.es/sites/v/index.jsp?vgnextchannel=bfa48ab43d6bb410VgnVCM100000171f5a0aRCRD&vgnextoid=58ec252aa267d710VgnVCM1000001d4a900aRCRD,PLAZA SANTO DOMINGO,,,,MADRID,MADRID,28013,1,PALACIO,1,CENTRO,439915,4474630,40.42013315230386,-3.7082597874437004,,
13466,Aparcamiento mixto. Plaza Mayor,Plazas: 694  279 Residenciales 415 Rotacionales  Abierto 24 horas  Titularidad : Ayuntamiento de Madrid    Gálibo: 1'85 m,0,http://www.madrid.es/sites/v/index.jsp?vgnextchannel=bfa48ab43d6bb410VgnVCM100000171f5a0aRCRD&vgnextoid=2b1981eb5f51c010VgnVCM2000000c205a0aRCRD,PLAZA MAYOR,1,-1,,MADRID,MADRID,28012,6,SOL,1,CENTRO,440027,4474155,40.4158677606471,-3.70689561392158,,
36271,Aparcamiento mixto. Presidente Carmona,Plazas: 127 públicas y 379 para residentes Abierto 24 horas  Titularidad: Ayuntamiento de Madrid  Teléfono: 91 556 62 26,0,http://www.madrid.es/sites/v/index.jsp?vgnextchannel=bfa48ab43d6bb410VgnVCM100000171f5a0aRCRD&vgnextoid=8a412c798651c010VgnVCM2000000c205a0aRCRD,AVENIDA GENERAL PERON,21,,,MADRID,MADRID,28020,2,CUATRO CAMINOS,6,TETUAN,441010,4478216,40.45251614668263,-3.6956837947248724,,
13476,Aparcamiento mixto. Recoletos (cerrado),Plazas: 102 públicas y 289 para residentes  Información sobre accesibilidad:   No tiene escaleras adaptadas 1 ascensor en la salida al Paseo de Recoletos 1 aseo accesible Plaza para minusválidos residentes: 10   Abierto 24 horas   Titularidad : Ayuntamiento de Madrid   Gestión: Empresa Municipal de Transportes (EMT) (más información),0,http://www.madrid.es/sites/v/index.jsp?vgnextchannel=bfa48ab43d6bb410VgnVCM100000171f5a0aRCRD&vgnextoid=283f15cbed51c010VgnVCM2000000c205a0aRCRD,PASEO RECOLETOS,4,,,MADRID,MADRID,28001,1,RECOLETOS,4,SALAMANCA,441309,4474759,40.421397488495096,-3.691841269615146,,aparcamientos@emtmadrid.es
24193,Aparcamiento mixto. República Dominicana,Plazas: 209 públicas y 892 para residentes Abierto 24 horas  Titularidad: Ayuntamiento de Madrid,0,http://www.madrid.es/sites/v/index.jsp?vgnextchannel=bfa48ab43d6bb410VgnVCM100000171f5a0aRCRD&vgnextoid=aabe6545f951c010VgnVCM2000000c205a0aRCRD,PLAZA REPUBLICA DOMINICANA,6,,,MADRID,MADRID,28016,5,NUEVA ESPAÑA,5,CHAMARTIN,442641,4478908,40.4588693818589,-3.67651579058803,,
81828,Aparcamiento mixto. Reyes Magos,Plazas: 356 públicas y 345 para residentes Abierto 24 horas  Titularidad: Ayuntamiento de Madrid,0,http://www.madrid.es/sites/v/index.jsp?vgnextchannel=bfa48ab43d6bb410VgnVCM100000171f5a0aRCRD&vgnextoid=0dfec2c6e051c010VgnVCM2000000c205a0aRCRD,PLAZA REYES MAGOS,,,,MADRID,MADRID,28007,6,NIÑO JESUS,3,RETIRO,442614,4473350,40.408797321706984,-3.6763215894089827,,
167692,Aparcamiento mixto. San Cayetano,Plazas: 222 públicas y 261 para residentes Abierto 24 horas  Titularidad: Ayuntamiento de Madrid,0,http://www.madrid.es/sites/v/index.jsp?vgnextchannel=bfa48ab43d6bb410VgnVCM100000171f5a0aRCRD&vgnextoid=a284ff632081c010VgnVCM1000000b205a0aRCRD,PLAZA SAN CAYETANO,1,,,MADRID,MADRID,28028,4,GUINDALERA,4,SALAMANCA,443161,4476191,40.4344244682971,-3.67012877493573,,
13515,Aparcamiento mixto. San Germán II (antes General Yagüe),Plazas: 419 públicas y 713 residentes Abierto 24 horas  Titularidad: Ayuntamiento de Madrid,0,http://www.madrid.es/sites/v/index.jsp?vgnextchannel=bfa48ab43d6bb410VgnVCM100000171f5a0aRCRD&vgnextoid=ee9e15cbed51c010VgnVCM2000000c205a0aRCRD,CALLE ORENSE,48,,,MADRID,MADRID,28020,3,CASTILLEJOS,6,TETUAN,441212,4478646,40.4564090502234,-3.69333344796644,,
19053,Aparcamiento mixto. Sánchez Bustillo,Plazas: 131 públicas y 408 para residentes Abierto 24 horas  Titularidad: Ayuntamiento de Madrid,0,http://www.madrid.es/sites/v/index.jsp?vgnextchannel=bfa48ab43d6bb410VgnVCM100000171f5a0aRCRD&vgnextoid=27912c798651c010VgnVCM2000000c205a0aRCRD,CALLE SANCHEZ BUSTILLO,,,,MADRID,MADRID,28012,2,EMBAJADORES,1,CENTRO,441130,4473369,40.40885884341386,-3.693821482712085,,
7416748,Aparcamiento mixto. Serrano I,Plazas: 307 públicas y 833 para residentes Abierto 24 horas  Titularidad: Ayuntamiento de Madrid,0,http://www.madrid.es/sites/v/index.jsp?vgnextchannel=bfa48ab43d6bb410VgnVCM100000171f5a0aRCRD&vgnextoid=bd61f94ae1d15410VgnVCM2000000c205a0aRCRD,CALLE SERRANO,84,,,MADRID,MADRID,28006,6,CASTELLANA,4,SALAMANCA,441804,4476037,40.4329452991722,-3.68611338542774,,
7417028,Aparcamiento mixto. Serrano II,Plazas: 379 públicas y 804 para residentes Abierto 24 horas  Titularidad: Ayuntamiento de Madrid,0,http://www.madrid.es/sites/v/index.jsp?vgnextchannel=bfa48ab43d6bb410VgnVCM100000171f5a0aRCRD&vgnextoid=bc096f1c35d15410VgnVCM2000000c205a0aRCRD,CALLE SERRANO,44,,,MADRID,MADRID,28001,1,RECOLETOS,4,SALAMANCA,441599,4475750,40.4303442290635,-3.68850808858792,,
7417052,Aparcamiento mixto. Serrano III,Plazas: 261 públicas y 725 para residentes Abierto 24 horas  Titularidad: Ayuntamiento de Madrid,0,http://www.madrid.es/sites/v/index.jsp?vgnextchannel=bfa48ab43d6bb410VgnVCM100000171f5a0aRCRD&vgnextoid=9a1c6f1c35d15410VgnVCM2000000c205a0aRCRD,CALLE SERRANO,2,,,MADRID,MADRID,28001,1,RECOLETOS,4,SALAMANCA,441497,4475094,40.4244268291578,-3.68965177313431,,
13460,Aparcamiento mixto. Sevilla,Plazas: 649 públicas rotacionales y 74 para residentes Abierto 24 horas Admite Tarjeta BonoRed   Titularidad: Ayuntamiento de Madrid,0,http://www.madrid.es/sites/v/index.jsp?vgnextchannel=bfa48ab43d6bb410VgnVCM100000171f5a0aRCRD&vgnextoid=9dd67339ae51c010VgnVCM2000000c205a0aRCRD,CALLE ALCALA,17,,,MADRID,MADRID,28014,6,SOL,1,CENTRO,440740,4474574,40.41780383567921,-3.6998082261071747,915219281,
13458,Aparcamiento mixto. Velázquez - Ayala,Plazas: 443 públicas y 230 para residentes Abierto 24 horas Admite Tarjeta BonoRed  Titularidad: Ayuntamiento de Madrid,0,http://www.madrid.es/sites/v/index.jsp?vgnextchannel=bfa48ab43d6bb410VgnVCM100000171f5a0aRCRD&vgnextoid=8bee15cbed51c010VgnVCM2000000c205a0aRCRD,CALLE VELAZQUEZ,47,,,MADRID,MADRID,28001,1,RECOLETOS,4,SALAMANCA,441971,4475406,40.4272702030791,-3.68408892366904,,
13457,Aparcamiento mixto. Velázquez - Jorge Juan,Plazas: 548 públicas y 395 para residentes Abierto 24 horas Admite Tarjeta BonoRed  Titularidad: Ayuntamiento de Madrid,1,http://www.madrid.es/sites/v/index.jsp?vgnextchannel=bfa48ab43d6bb410VgnVCM100000171f5a0aRCRD&vgnextoid=d11f15cbed51c010VgnVCM2000000c205a0aRCRD,CALLE VELAZQUEZ,1,,,MADRID,MADRID,28001,1,RECOLETOS,4,SALAMANCA,441946,4475076,40.4242991698907,-3.68435762446743,,
183607,Aparcamiento mixto. Verdaguer y García,Plazas: 83 públicas y 91 para residentes  Información sobre accesibilidad:  No tiene escaleras adaptadas 1 ascensor en la salida a la Calle Verdaguer y garcía 1 aseo accesible en la planta -1 Plaza para minusválidos residentes: 4    Abierto 24 horas   Titularidad: Ayuntamiento de Madrid,0,http://www.madrid.es/sites/v/index.jsp?vgnextchannel=bfa48ab43d6bb410VgnVCM100000171f5a0aRCRD&vgnextoid=6245bdc85c01c010VgnVCM2000000c205a0aRCRD,CALLE VERDAGUER Y GARCIA,2,,,MADRID,MADRID,28027,5,SAN PASCUAL,15,CIUDAD LINEAL,444305,4476770,40.4397163141475,-3.6566922711780356,913531050,
8087180,Aparcamiento para residentes del Centro Polivalente Barceló,,0,http://www.madrid.es/sites/v/index.jsp?vgnextchannel=bfa48ab43d6bb410VgnVCM100000171f5a0aRCRD&vgnextoid=9826774ac3cdd410VgnVCM2000000c205a0aRCRD,CALLE BARCELO,6,,,MADRID,MADRID,28004,4,JUSTICIA,1,CENTRO,440689,4475392,40.4270579430205,-3.69920590014237,,
4829668,Aparcamiento para residentes.  Ginzo de Limia,Plazas: 97 Abierto 24 horas  Titularidad: Ayuntamiento de Madrid  Gestión: Empresa Municipal de Transportes (EMT) (más información),0,http://www.madrid.es/sites/v/index.jsp?vgnextchannel=bfa48ab43d6bb410VgnVCM100000171f5a0aRCRD&vgnextoid=9c77780e5c0a8110VgnVCM1000000b205a0aRCRD,CALLE VALENCIA DE DON JUAN,2,,,MADRID,MADRID,28034,5,LA PAZ,8,FUENCARRAL-EL PARDO,440071,4481799,40.484726228522256,-3.707095467956364,,
24139,Aparcamiento para residentes.  Valderromán,Plazas: 424 Abierto 24 horas  Titularidad: Ayuntamiento de Madrid,0,http://www.madrid.es/sites/v/index.jsp?vgnextchannel=bfa48ab43d6bb410VgnVCM100000171f5a0aRCRD&vgnextoid=85026545f951c010VgnVCM2000000c205a0aRCRD,CALLE VALDERROMAN,24,,,MADRID,MADRID,28035,4,VALDEZARZA,9,MONCLOA-ARAVACA,438836,4480242,40.470610708220725,-3.7215173170272573,,
67711,Aparcamiento para residentes. Aguilar de Campoo,Plazas: 303 Abierto 24 horas  Titularidad: Ayuntamiento de Madrid,0,http://www.madrid.es/sites/v/index.jsp?vgnextchannel=bfa48ab43d6bb410VgnVCM100000171f5a0aRCRD&vgnextoid=d60868540e41c010VgnVCM2000000c205a0aRCRD,CALLE ANTONIO MACHADO,10,,entrada y salida por calle Antonio Machado,MADRID,MADRID,28035,4,VALDEZARZA,9,MONCLOA-ARAVACA,439012,4479586,40.4647124801429,-3.71937440247255,,
13560,Aparcamiento para residentes. Aguilón,Plazas: 271 Abierto 24 horas  Titularidad: Ayuntamiento de Madrid,0,http://www.madrid.es/sites/v/index.jsp?vgnextchannel=bfa48ab43d6bb410VgnVCM100000171f5a0aRCRD&vgnextoid=bc5215cbed51c010VgnVCM2000000c205a0aRCRD,PASEO CHOPERA,27,,,MADRID,MADRID,28045,3,CHOPERA,2,ARGANZUELA,440537,4471871,40.3953242147226,-3.70066269999703,,
81690,Aparcamiento para residentes. Agustín Lara,"Plazas: 343 Abierto 24 horas  Titularidad: Ayuntamiento de Madrid   La EMT oferta plazas de estacionamiento, en régimen de alquiler de larga duración, con abonos de 1, 3 y 5 años en este aparcamiento. Más información:  http://www.emtmadrid.es/aparcamiento_agustin_lara/index.html",0,http://www.madrid.es/sites/v/index.jsp?vgnextchannel=bfa48ab43d6bb410VgnVCM100000171f5a0aRCRD&vgnextoid=856bc2c6e051c010VgnVCM2000000c205a0aRCRD,CALLE MESON DE PAREDES,66,,,MADRID,MADRID,28012,2,EMBAJADORES,1,CENTRO,440247,4473251,40.4077362146594,-3.70421674570288,,
7439839,Aparcamiento para residentes. Alameda (cerrado),Plazas: 171 Abierto 24 horas  Titularidad: Ayuntamiento de Madrid,0,http://www.madrid.es/sites/v/index.jsp?vgnextchannel=bfa48ab43d6bb410VgnVCM100000171f5a0aRCRD&vgnextoid=5690bf11ca045410VgnVCM1000000b205a0aRCRD,CALLE ALAMEDA,11,,,MADRID,MADRID,28014,3,CORTES,1,CENTRO,441131,4473678,40.411641708999,-3.693836597352357,,
24136,Aparcamiento para residentes. Alcalde Sáinz de Baranda,Plazas: 565 Abierto 24 horas  Titularidad: Ayuntamiento de Madrid,0,http://www.madrid.es/sites/v/index.jsp?vgnextchannel=bfa48ab43d6bb410VgnVCM100000171f5a0aRCRD&vgnextoid=80af6545f951c010VgnVCM2000000c205a0aRCRD,CALLE ALCALDE SAINZ DE BARANDA,81,,,MADRID,MADRID,28007,3,ESTRELLA,3,RETIRO,443289,4474255,40.4169949224885,-3.66844857705472,,
17790,Aparcamiento para residentes. Alcazaba,Plazas: 334 Abierto 24 horas  Titularidad: Ayuntamiento de Madrid,0,http://www.madrid.es/sites/v/index.jsp?vgnextchannel=bfa48ab43d6bb410VgnVCM100000171f5a0aRCRD&vgnextoid=f0ee6545f951c010VgnVCM2000000c205a0aRCRD,CALLE SINESIO DELGADO,26,,,MADRID,MADRID,28029,4,EL PILAR,8,FUENCARRAL-EL PARDO,440394,4480510,40.4731383570492,-3.70315583932366,,
81696,Aparcamiento para residentes. Alonso Cano,Plazas: 433 Abierto 24 horas  Titularidad: Ayuntamiento de Madrid,0,http://www.madrid.es/sites/v/index.jsp?vgnextchannel=bfa48ab43d6bb410VgnVCM100000171f5a0aRCRD&vgnextoid=fa0dc2c6e051c010VgnVCM2000000c205a0aRCRD,CALLE JOSE ABASCAL,28,,,MADRID,MADRID,28003,4,ALMAGRO,7,CHAMBERI,440836,4476637,40.4382832884019,-3.69758433593285,,
13561,Aparcamiento para residentes. Altos de Lillo,Plazas: 167 Abierto 24 horas  Titularidad: Ayuntamiento de Madrid,0,http://www.madrid.es/sites/v/index.jsp?vgnextchannel=bfa48ab43d6bb410VgnVCM100000171f5a0aRCRD&vgnextoid=038215cbed51c010VgnVCM2000000c205a0aRCRD,CALLE ALTOS DE LILLO,10,,,MADRID,MADRID,28031,1,CASCO H.VALLECAS,18,VILLA DE VALLECAS,447471,4469576,40.3751161947067,-3.6187764984665742,,
19060,Aparcamiento para residentes. Aluche,Plazas: 208 Abierto 24 horas  Titularidad: Ayuntamiento de Madrid,0,http://www.madrid.es/sites/v/index.jsp?vgnextchannel=bfa48ab43d6bb410VgnVCM100000171f5a0aRCRD&vgnextoid=1a022c798651c010VgnVCM2000000c205a0aRCRD,CALLE ILLESCAS,,,ESQUINA CALLE VALMOJADO,MADRID,MADRID,28047,4,ALUCHE,10,LATINA,435611,4471610,40.39260709014263,-3.7586798849896357,,
13494,Aparcamiento para residentes. América Española,Plazas: 282 Abierto 24 horas  Titularidad: Ayuntamiento de Madrid,0,http://www.madrid.es/sites/v/index.jsp?vgnextchannel=bfa48ab43d6bb410VgnVCM100000171f5a0aRCRD&vgnextoid=09b37339ae51c010VgnVCM2000000c205a0aRCRD,PLAZA AMERICA ESPAÑOLA,4,,,MADRID,MADRID,28028,3,FUENTE DEL BERRO,4,SALAMANCA,443841,4475640,40.42950678341485,-3.662070781525576,,
5753573,Aparcamiento para residentes. Andorra II,Plazas: 280 Abierto 24 horas  Titularidad: Ayuntamiento de Madrid,0,http://www.madrid.es/sites/v/index.jsp?vgnextchannel=bfa48ab43d6bb410VgnVCM100000171f5a0aRCRD&vgnextoid=5fae964bd47a9210VgnVCM1000000b205a0aRCRD,CALLE SILVANO,61,,,MADRID,MADRID,28043,3,CANILLAS,16,HORTALEZA,445476,4478934,40.4592933474543,-3.64307327470994,,
13552,Aparcamiento para residentes. Andévalo,Plazas: 313 Abierto 24 horas  Titularidad: Ayuntamiento de Madrid,0,http://www.madrid.es/sites/v/index.jsp?vgnextchannel=bfa48ab43d6bb410VgnVCM100000171f5a0aRCRD&vgnextoid=59a215cbed51c010VgnVCM2000000c205a0aRCRD,CALLE ANDEVALO,4,,,MADRID,MADRID,28053,1,ENTREVIAS,13,PUENTE DE VALLECAS,443269,4469531,40.3744327501903,-3.66826781064601,,
13548,Aparcamiento para residentes. Antonio López,Plazas: 1111 Abierto 24 horas  Titularidad: Ayuntamiento de Madrid,0,http://www.madrid.es/sites/v/index.jsp?vgnextchannel=bfa48ab43d6bb410VgnVCM100000171f5a0aRCRD&vgnextoid=afc215cbed51c010VgnVCM2000000c205a0aRCRD,PASAJE MONTSERRAT,5,,,MADRID,MADRID,28019,1,COMILLAS,11,CARABANCHEL,439444,4472060,40.39694438782468,-3.7135672715867516,,
13562,Aparcamiento para residentes. Antonio Machado,Plazas: 339 Abierto 24 horas  Titularidad: Ayuntamiento de Madrid,0,http://www.madrid.es/sites/v/index.jsp?vgnextchannel=bfa48ab43d6bb410VgnVCM100000171f5a0aRCRD&vgnextoid=f5f215cbed51c010VgnVCM2000000c205a0aRCRD,CALLE ANTONIO MACHADO,53,,,MADRID,MADRID,28035,4,VALDEZARZA,9,MONCLOA-ARAVACA,439013,4480042,40.4688249684818,-3.71940862849532,,
13554,Aparcamiento para residentes. Antonio Maura,Plazas: 510 Abierto 24 horas  Titularidad: Ayuntamiento de Madrid,0,http://www.madrid.es/sites/v/index.jsp?vgnextchannel=bfa48ab43d6bb410VgnVCM100000171f5a0aRCRD&vgnextoid=4c1315cbed51c010VgnVCM2000000c205a0aRCRD,CALLE ANTONIO MAURA,14,,,MADRID,MADRID,28014,5,LOS JERONIMOS,3,RETIRO,441427,4474201,40.4163744217811,-3.6903956132852,,
24093,Aparcamiento para residentes. Antonio Mena,Plazas: 313 Abierto 24 horas  Titularidad: Ayuntamiento de Madrid,1,http://www.madrid.es/sites/v/index.jsp?vgnextchannel=bfa48ab43d6bb410VgnVCM100000171f5a0aRCRD&vgnextoid=78726545f951c010VgnVCM2000000c205a0aRCRD,AVENIDA DOCTOR GARCIA TAPIA,119,,,MADRID,MADRID,28030,3,MARROQUINA,14,MORATALAZ,445535,4473537,40.4106715339171,-3.6419244141850147,,
24088,Aparcamiento para residentes. Antonio Pirala,Plazas: 508 Abierto 24 horas  Titularidad: Ayuntamiento de Madrid,0,http://www.madrid.es/sites/v/index.jsp?vgnextchannel=bfa48ab43d6bb410VgnVCM100000171f5a0aRCRD&vgnextoid=d6cf6545f951c010VgnVCM2000000c205a0aRCRD,CALLE ANTONIO PIRALA,2,,,MADRID,MADRID,28017,1,VENTAS,15,CIUDAD LINEAL,444046,4475684,40.4299188865507,-3.65965475850968,,
24095,Aparcamiento para residentes. Arganda,Plazas: 164 Abierto 24 horas  Titularidad: Ayuntamiento de Madrid,0,http://www.madrid.es/sites/v/index.jsp?vgnextchannel=bfa48ab43d6bb410VgnVCM100000171f5a0aRCRD&vgnextoid=2def6545f951c010VgnVCM2000000c205a0aRCRD,CALLE ARGANDA,10,,,MADRID,MADRID,28005,2,ACACIAS,2,ARGANZUELA,439967,4472425,40.4002719862502,-3.70743118334844,,
24096,Aparcamiento para residentes. Arroyo del Olivar,Plazas: 214 Abierto 24 horas  Titularidad: Ayuntamiento de Madrid,0,http://www.madrid.es/sites/v/index.jsp?vgnextchannel=bfa48ab43d6bb410VgnVCM100000171f5a0aRCRD&vgnextoid=73106545f951c010VgnVCM2000000c205a0aRCRD,CALLE ARROYO DEL OLIVAR,108,,,MADRID,MADRID,28018,3,PALOMERAS BAJAS,13,PUENTE DE VALLECAS,444221,4471260,40.390072718009264,-3.65720992196733,,
13537,Aparcamiento para residentes. Arroyo Fontarrón,Plazas: 307 Abierto 24 horas  Titularidad: Ayuntamiento de Madrid,0,http://www.madrid.es/sites/v/index.jsp?vgnextchannel=bfa48ab43d6bb410VgnVCM100000171f5a0aRCRD&vgnextoid=e86315cbed51c010VgnVCM2000000c205a0aRCRD,CALLE ARROYO FONTARRON,19,,,MADRID,MADRID,28030,5,FONTARRON,14,MORATALAZ,444803,4472863,40.404553194023,-3.65048494147953,,
13536,Aparcamiento para residentes. Arroyo Media Legua,Plazas: 285 Abierto 24 horas  Titularidad: Ayuntamiento de Madrid,0,http://www.madrid.es/sites/v/index.jsp?vgnextchannel=bfa48ab43d6bb410VgnVCM100000171f5a0aRCRD&vgnextoid=924315cbed51c010VgnVCM2000000c205a0aRCRD,CALLE ARROYO DE LA MEDIA LEGUA,48,,,MADRID,MADRID,28030,4,MEDIA LEGUA,14,MORATALAZ,444341,4473470,40.40999547047031,-3.655986242152849,,
13626,Aparcamiento para residentes. Augusto González Besada,Plazas: 275 Abierto 24 horas  Titularidad: Ayuntamiento de Madrid,0,http://www.madrid.es/sites/v/index.jsp?vgnextchannel=bfa48ab43d6bb410VgnVCM100000171f5a0aRCRD&vgnextoid=3f8315cbed51c010VgnVCM2000000c205a0aRCRD,AVENIDA MORATALAZ,183,,,MADRID,MADRID,28030,3,MARROQUINA,14,MORATALAZ,445369,4473342,40.4089104705604,-3.64386362951559,,
17449,Aparcamiento para residentes. Avenida de las Águilas (antes General Fanjul),Plazas: 574 Abierto 24 horas  Titularidad: Ayuntamiento de Madrid,0,http://www.madrid.es/sites/v/index.jsp?vgnextchannel=bfa48ab43d6bb410VgnVCM100000171f5a0aRCRD&vgnextoid=470f6545f951c010VgnVCM2000000c205a0aRCRD,AVENIDA LAS AGUILAS,144,,,MADRID,MADRID,28044,7,LAS AGUILAS,10,LATINA,433535,4470282,40.3804832805408,-3.78300236990473,,
170742,Aparcamiento para residentes. Azuaga,Plazas: 261 Abierto 24 horas  Titularidad: Ayuntamiento de Madrid,1,http://www.madrid.es/sites/v/index.jsp?vgnextchannel=bfa48ab43d6bb410VgnVCM100000171f5a0aRCRD&vgnextoid=f8a4ff632081c010VgnVCM1000000b205a0aRCRD,CALLE SAN RESTITUTO,33,,,MADRID,MADRID,28039,4,VALDEZARZA,9,MONCLOA-ARAVACA,439657,4479590,40.464795265151,-3.71176345766358,,
13633,Aparcamiento para residentes. Baviera,Plazas: 208 Abierto 24 horas  Titularidad: Ayuntamiento de Madrid,1,http://www.madrid.es/sites/v/index.jsp?vgnextchannel=bfa48ab43d6bb410VgnVCM100000171f5a0aRCRD&vgnextoid=f09015cbed51c010VgnVCM2000000c205a0aRCRD,AVENIDA AMERICA,58,,,MADRID,MADRID,28028,4,GUINDALERA,4,SALAMANCA,443767,4477179,40.4433686262101,-3.66308052190316,,
13501,Aparcamiento para residentes. Bañeza,Plazas: 239 Abierto 24 horas  Titularidad: Ayuntamiento de Madrid,0,http://www.madrid.es/sites/v/index.jsp?vgnextchannel=bfa48ab43d6bb410VgnVCM100000171f5a0aRCRD&vgnextoid=ea0b7339ae51c010VgnVCM2000000c205a0aRCRD,CALLE LA BAÑEZA,12,,,MADRID,MADRID,28029,4,EL PILAR,8,FUENCARRAL-EL PARDO,439541,4480890,40.4764987691693,-3.71325706372804,,
81700,Aparcamiento para residentes. Belianes,Plazas: 161 Abierto 24 horas  Titularidad: Ayuntamiento de Madrid,0,http://www.madrid.es/sites/v/index.jsp?vgnextchannel=bfa48ab43d6bb410VgnVCM100000171f5a0aRCRD&vgnextoid=22bbc2c6e051c010VgnVCM2000000c205a0aRCRD,CALLE AGUSTIN DE ITURBIDE,5,,,MADRID,MADRID,28043,4,PINAR DEL REY,16,HORTALEZA,445342,4480104,40.4698229718518,-3.64476364718934,,
21182,Aparcamiento para residentes. Blasco de Garay,Plazas: 461 Abierto 24 horas  Titularidad: Ayuntamiento de Madrid,0,http://www.madrid.es/sites/v/index.jsp?vgnextchannel=bfa48ab43d6bb410VgnVCM100000171f5a0aRCRD&vgnextoid=c9306545f951c010VgnVCM2000000c205a0aRCRD,CALLE MELENDEZ VALDES,32,,,MADRID,MADRID,28015,1,GAZTAMBIDE,7,CHAMBERI,439634,4476097,40.4333313523738,-3.71170388375829,,
13532,Aparcamiento para residentes. Bohemios,Plazas: 340 Abierto 24 horas  Titularidad: Ayuntamiento de Madrid,0,http://www.madrid.es/sites/v/index.jsp?vgnextchannel=bfa48ab43d6bb410VgnVCM100000171f5a0aRCRD&vgnextoid=85b315cbed51c010VgnVCM2000000c205a0aRCRD,CALLE BOHEMIOS,4,,,MADRID,MADRID,28041,5,LOS ANGELES,17,VILLAVERDE,441045,4467619,40.3570573825234,-3.69428642448259,,
13495,Aparcamiento para residentes. Boston,Plazas: 353 Abierto 24 horas  Titularidad: Ayuntamiento de Madrid,0,http://www.madrid.es/sites/v/index.jsp?vgnextchannel=bfa48ab43d6bb410VgnVCM100000171f5a0aRCRD&vgnextoid=dbd315cbed51c010VgnVCM2000000c205a0aRCRD,CALLE BOSTON,1,,,MADRID,MADRID,28028,4,GUINDALERA,4,SALAMANCA,443545,4476510,40.43732544918828,-3.6656301287112916,,
13530,Aparcamiento para residentes. Bravo Murillo,Plazas: 629 Abierto 24 horas  Titularidad: Ayuntamiento de Madrid  Teléfono:   618 263 474,0,http://www.madrid.es/sites/v/index.jsp?vgnextchannel=bfa48ab43d6bb410VgnVCM100000171f5a0aRCRD&vgnextoid=220415cbed51c010VgnVCM2000000c205a0aRCRD,CALLE BRAVO MURILLO,49,,,MADRID,MADRID,28003,6,VALLEHERMOSO,7,CHAMBERI,440266,4476769,40.4394326885612,-3.70431921200787,,
13563,Aparcamiento para residentes. Brescia,Plazas: 399 Abierto 24 horas  Titularidad: Ayuntamiento de Madrid,0,http://www.madrid.es/sites/v/index.jsp?vgnextchannel=bfa48ab43d6bb410VgnVCM100000171f5a0aRCRD&vgnextoid=782415cbed51c010VgnVCM2000000c205a0aRCRD,PLAZA BASILEA,1,,,MADRID,MADRID,28028,4,GUINDALERA,4,SALAMANCA,443811,4476553,40.4377295409351,-3.66250177071974,,
13564,Aparcamiento para residentes. Bristol,Plazas: 317 Abierto 24 horas  Titularidad: Ayuntamiento de Madrid,0,http://www.madrid.es/sites/v/index.jsp?vgnextchannel=bfa48ab43d6bb410VgnVCM100000171f5a0aRCRD&vgnextoid=ce4415cbed51c010VgnVCM2000000c205a0aRCRD,CALLE BRISTOL,2,,,MADRID,MADRID,28028,4,GUINDALERA,4,SALAMANCA,443838,4476686,40.438926762097445,-3.6621985089251137,,
13565,Aparcamiento para residentes. Bruselas,Plazas: 224 Abierto 24 horas  Titularidad: Ayuntamiento de Madrid,0,http://www.madrid.es/sites/v/index.jsp?vgnextchannel=bfa48ab43d6bb410VgnVCM100000171f5a0aRCRD&vgnextoid=47b015cbed51c010VgnVCM2000000c205a0aRCRD,AVENIDA BRUSELAS,74,,,MADRID,MADRID,28028,4,GUINDALERA,4,SALAMANCA,443722,4477090,40.4425620205734,-3.66360229625587,,
81706,Aparcamiento para residentes. Burgo de Osma,Plazas: 160 Abierto 24 horas  Titularidad: Ayuntamiento de Madrid,0,http://www.madrid.es/sites/v/index.jsp?vgnextchannel=bfa48ab43d6bb410VgnVCM100000171f5a0aRCRD&vgnextoid=413dc2c6e051c010VgnVCM2000000c205a0aRCRD,CALLE BURGO DE OSMA,3,,,MADRID,MADRID,28033,5,APOSTOL SANTIAGO,16,HORTALEZA,443847,4480066,40.4693776045414,-3.66238559705991,,
183737,Aparcamiento para residentes. Cabestreros,Plazas: 360 Abierto 24 horas  Titularidad: Ayuntamiento de Madrid,0,http://www.madrid.es/sites/v/index.jsp?vgnextchannel=bfa48ab43d6bb410VgnVCM100000171f5a0aRCRD&vgnextoid=f106bdc85c01c010VgnVCM2000000c205a0aRCRD,CALLE MESON DE PAREDES,37,,,MADRID,MADRID,28012,2,EMBAJADORES,1,CENTRO,440316,4473483,40.4098262170267,-3.70341928254916,,
13566,Aparcamiento para residentes. Calanda,Plazas: 368 Abierto 24 horas  Titularidad: Ayuntamiento de Madrid,0,http://www.madrid.es/sites/v/index.jsp?vgnextchannel=bfa48ab43d6bb410VgnVCM100000171f5a0aRCRD&vgnextoid=157415cbed51c010VgnVCM2000000c205a0aRCRD,CALLE CALANDA,30,,,MADRID,MADRID,28043,3,CANILLAS,16,HORTALEZA,445621,4479290,40.4625086228176,-3.64139838482317,,
13499,Aparcamiento para residentes. Camarena,Plazas: 192 Abierto 24 horas  Titularidad: Ayuntamiento de Madrid,0,http://www.madrid.es/sites/v/index.jsp?vgnextchannel=bfa48ab43d6bb410VgnVCM100000171f5a0aRCRD&vgnextoid=6b9415cbed51c010VgnVCM2000000c205a0aRCRD,CALLE CAMARENA,59,-1,,MADRID,MADRID,28047,4,ALUCHE,10,LATINA,435869,4471773,40.39409662327533,-3.755650361571214,,
13539,Aparcamiento para residentes. Camino de los Vinateros I,Plazas: 249 Abierto 24 horas  Titularidad: Ayuntamiento de Madrid,0,http://www.madrid.es/sites/v/index.jsp?vgnextchannel=bfa48ab43d6bb410VgnVCM100000171f5a0aRCRD&vgnextoid=b1c415cbed51c010VgnVCM2000000c205a0aRCRD,CALLE CAMINO DE LOS VINATEROS,159,,,MADRID,MADRID,28030,6,VINATEROS,14,MORATALAZ,445506,4473061,40.4063803140088,-3.642216978933147,,
13538,Aparcamiento para residentes. Camino de los Vinateros II (El Torito),Plazas: 477 Abierto 24 horas  Titularidad: Ayuntamiento de Madrid,0,http://www.madrid.es/sites/v/index.jsp?vgnextchannel=bfa48ab43d6bb410VgnVCM100000171f5a0aRCRD&vgnextoid=08e415cbed51c010VgnVCM2000000c205a0aRCRD,CALLE CAMINO DE LOS VINATEROS,120,,,MADRID,MADRID,28030,6,VINATEROS,14,MORATALAZ,445178,4473138,40.4070586556589,-3.64609602112553,,
13632,Aparcamiento para residentes. Camino Viejo de Leganés,Plazas: 284 Abierto 24 horas  Titularidad: Ayuntamiento de Madrid,0,http://www.madrid.es/sites/v/index.jsp?vgnextchannel=bfa48ab43d6bb410VgnVCM100000171f5a0aRCRD&vgnextoid=5e0515cbed51c010VgnVCM2000000c205a0aRCRD,CALLE CAMINO VIEJO DE LEGANES,179,,,MADRID,MADRID,28025,7,ABRANTES,11,CARABANCHEL,437903,4470256,40.38058220013319,-3.7315453065945747,,
13518,Aparcamiento para residentes. Campillo del Mundo Nuevo,Plazas: 452 Abierto 24 horas  Titularidad: Ayuntamiento de Madrid,0,http://www.madrid.es/sites/v/index.jsp?vgnextchannel=bfa48ab43d6bb410VgnVCM100000171f5a0aRCRD&vgnextoid=a5047339ae51c010VgnVCM2000000c205a0aRCRD,PLAZA CAMPILLO DEL MUNDO NUEVO,3,,,MADRID,MADRID,28005,2,EMBAJADORES,1,CENTRO,439909,4473110,40.4064404010153,-3.70818511731584,,
81710,Aparcamiento para residentes. Canal,Plazas: 112 Abierto 24 horas  Titularidad: Ayuntamiento de Madrid  Teléfonos: 618 856 882                    604 288 125,0,http://www.madrid.es/sites/v/index.jsp?vgnextchannel=bfa48ab43d6bb410VgnVCM100000171f5a0aRCRD&vgnextoid=78dbc2c6e051c010VgnVCM2000000c205a0aRCRD,CALLE CEA BERMUDEZ,1,,,MADRID,MADRID,28003,2,ARAPILES,7,CHAMBERI,440157,4476680,40.4386229816115,-3.70560050313099,,
13624,Aparcamiento para residentes. Cantabria,Plazas: 211 Abierto 24 horas  Titularidad: Ayuntamiento de Madrid,0,http://www.madrid.es/sites/v/index.jsp?vgnextchannel=bfa48ab43d6bb410VgnVCM100000171f5a0aRCRD&vgnextoid=9dd015cbed51c010VgnVCM2000000c205a0aRCRD,CALLE BERGANTIN,24,,,MADRID,MADRID,28042,1,ALAMEDA DE OSUNA,21,BARAJAS,450543,4478921,40.4594904098294,-3.5833143755023,,
81733,Aparcamiento para residentes. Castelló,Plazas: 303 Abierto 24 horas  Titularidad: Ayuntamiento de Madrid,0,http://www.madrid.es/sites/v/index.jsp?vgnextchannel=bfa48ab43d6bb410VgnVCM100000171f5a0aRCRD&vgnextoid=cefbc2c6e051c010VgnVCM2000000c205a0aRCRD,CALLE DIEGO DE LEON,29,,,MADRID,MADRID,28006,6,CASTELLANA,4,SALAMANCA,442203,4476252,40.434908578522,-3.68143698282303,,
13567,Aparcamiento para residentes. Castrillo de Aza,Plazas: 297 Abierto 24 horas  Titularidad: Ayuntamiento de Madrid,0,http://www.madrid.es/sites/v/index.jsp?vgnextchannel=bfa48ab43d6bb410VgnVCM100000171f5a0aRCRD&vgnextoid=fa5515cbed51c010VgnVCM2000000c205a0aRCRD,AVENIDA SANTA EUGENIA,1,,,MADRID,MADRID,28031,2,SANTA EUGENIA,18,VILLA DE VALLECAS,448421,4470809,40.3862854427749,-3.60768383167671,,
13533,Aparcamiento para residentes. Cañada,Plazas: 288 Abierto 24 horas  Titularidad: Ayuntamiento de Madrid,0,http://www.madrid.es/sites/v/index.jsp?vgnextchannel=bfa48ab43d6bb410VgnVCM100000171f5a0aRCRD&vgnextoid=a43515cbed51c010VgnVCM2000000c205a0aRCRD,CALLE CAÑADA,27,,,MADRID,MADRID,28030,6,VINATEROS,14,MORATALAZ,445301,4472911,40.4050195561753,-3.64462726953091,,
13636,Aparcamiento para residentes. Chamberí,Plazas: 690 Abierto 24 horas  Titularidad: Ayuntamiento de Madrid,0,http://www.madrid.es/sites/v/index.jsp?vgnextchannel=bfa48ab43d6bb410VgnVCM100000171f5a0aRCRD&vgnextoid=fb247339ae51c010VgnVCM2000000c205a0aRCRD,CALLE SANTA ENGRACIA,34,,,MADRID,MADRID,28010,4,ALMAGRO,7,CHAMBERI,440849,4475951,40.4321041641281,-3.69736547125222,,
81734,Aparcamiento para residentes. Chaparral,Plazas: 226 Abierto 24 horas  Titularidad: Ayuntamiento de Madrid,0,http://www.madrid.es/sites/v/index.jsp?vgnextchannel=bfa48ab43d6bb410VgnVCM100000171f5a0aRCRD&vgnextoid=152cc2c6e051c010VgnVCM2000000c205a0aRCRD,CALLE CHAPARRAL,40,,,MADRID,MADRID,28033,4,PINAR DEL REY,16,HORTALEZA,446416,4480168,40.4704680711316,-3.63209844013838,,
13568,Aparcamiento para residentes. Cidamón,Plazas: 343 Abierto 24 horas  Titularidad: Ayuntamiento de Madrid,0,http://www.madrid.es/sites/v/index.jsp?vgnextchannel=bfa48ab43d6bb410VgnVCM100000171f5a0aRCRD&vgnextoid=418515cbed51c010VgnVCM2000000c205a0aRCRD,CALLE ABALOS,4,,,MADRID,MADRID,28043,6,SAN JUAN BAUTISTA,15,CIUDAD LINEAL,444371,4477936,40.4502275088023,-3.65601940414286,,
13503,Aparcamiento para residentes. Clara del Rey,Plazas: 179 Abierto 24 horas  Titularidad: Ayuntamiento de Madrid,0,http://www.madrid.es/sites/v/index.jsp?vgnextchannel=bfa48ab43d6bb410VgnVCM100000171f5a0aRCRD&vgnextoid=97a515cbed51c010VgnVCM2000000c205a0aRCRD,CALLE CLARA DEL REY,49,,,MADRID,MADRID,28002,2,PROSPERIDAD,5,CHAMARTIN,443287,4477242,40.4439002303705,-3.66873934705878,,
24099,Aparcamiento para residentes. Codorniz,Plazas: 705 Abierto 24 horas  Titularidad: Ayuntamiento de Madrid,0,http://www.madrid.es/sites/v/index.jsp?vgnextchannel=bfa48ab43d6bb410VgnVCM100000171f5a0aRCRD&vgnextoid=10606545f951c010VgnVCM2000000c205a0aRCRD,CALLE MONSEÑOR OSCAR ROMERO,75,-3,,MADRID,MADRID,28047,4,VISTA ALEGRE,11,CARABANCHEL,436248,4470455,40.3822490532466,-3.75106420146634,,
13569,Aparcamiento para residentes. Comandante Benítez,Plazas: 166 Abierto 24 horas  Titularidad: Ayuntamiento de Madrid,0,http://www.madrid.es/sites/v/index.jsp?vgnextchannel=bfa48ab43d6bb410VgnVCM100000171f5a0aRCRD&vgnextoid=edc515cbed51c010VgnVCM2000000c205a0aRCRD,CALLE COMANDANTE BENITEZ,16,,,MADRID,MADRID,28045,3,CHOPERA,2,ARGANZUELA,440742,4472112,40.3975109762013,-3.69826675336291,,
13571,Aparcamiento para residentes. Condado de Treviño,Plazas: 195 Abierto 24 horas  Titularidad: Ayuntamiento de Madrid,0,http://www.madrid.es/sites/v/index.jsp?vgnextchannel=bfa48ab43d6bb410VgnVCM100000171f5a0aRCRD&vgnextoid=34f515cbed51c010VgnVCM2000000c205a0aRCRD,CALLE CONDADO DE TREVIÑO,31,,,MADRID,MADRID,28033,9,COSTILLARES,15,CIUDAD LINEAL,443249,4481255,40.4800505171255,-3.66955150726522,,
24101,Aparcamiento para residentes. Conde de Casal / Mediterraneo,Plazas: 1650 Abierto 24 horas  Titularidad: Ayuntamiento de Madrid,0,http://www.madrid.es/sites/v/index.jsp?vgnextchannel=bfa48ab43d6bb410VgnVCM100000171f5a0aRCRD&vgnextoid=549e6545f951c010VgnVCM2000000c205a0aRCRD,AVENIDA MEDITERRANEO,28,,,MADRID,MADRID,28007,1,PACIFICO,3,RETIRO,442855,4473143,40.4069414961023,-3.67346590971438,,
13504,Aparcamiento para residentes. Corazón de María I,Plazas: 166 Abierto 24 horas  Titularidad: Ayuntamiento de Madrid,0,http://www.madrid.es/sites/v/index.jsp?vgnextchannel=bfa48ab43d6bb410VgnVCM100000171f5a0aRCRD&vgnextoid=8a1615cbed51c010VgnVCM2000000c205a0aRCRD,CALLE CORAZON DE MARIA,6,,,MADRID,MADRID,28002,2,PROSPERIDAD,5,CHAMARTIN,443097,4476862,40.440466332376,-3.67094880753214,,
24103,Aparcamiento para residentes. Corazón de María II,Plazas: 327 públicas y 750 para residentes  Informacion sobre accesibilidad:  No tiene escalera adaptada No tiene ascensor de salida a calle 2 aseos accesibles (1&amp;ordf; planta)  Plazas para minusválidos residentes: 6    Abierto 24 horas   Titularidad: Ayuntamiento de Madrid,0,http://www.madrid.es/sites/v/index.jsp?vgnextchannel=bfa48ab43d6bb410VgnVCM100000171f5a0aRCRD&vgnextoid=b74e6545f951c010VgnVCM2000000c205a0aRCRD,CALLE CORAZON DE MARIA,72,,,MADRID,MADRID,28002,2,PROSPERIDAD,5,CHAMARTIN,443433,4477298,40.4444174410574,-3.6670287481035015,915563165,aparcamientocorazondemaria@grupocogesa.es
13500,Aparcamiento para residentes. Cuevas de Almanzora,Plazas: 203 Abierto 24 horas  Titularidad: Ayuntamiento de Madrid,0,http://www.madrid.es/sites/v/index.jsp?vgnextchannel=bfa48ab43d6bb410VgnVCM100000171f5a0aRCRD&vgnextoid=276615cbed51c010VgnVCM2000000c205a0aRCRD,CALLE MOJACAR,2,,,MADRID,MADRID,28033,5,APOSTOL SANTIAGO,16,HORTALEZA,444240,4481178,40.47941994494686,-3.6578569564924415,,
81737,Aparcamiento para residentes. Cumare,Plazas: 156 Abierto 24 horas  Titularidad: Ayuntamiento de Madrid,0,http://www.madrid.es/sites/v/index.jsp?vgnextchannel=bfa48ab43d6bb410VgnVCM100000171f5a0aRCRD&vgnextoid=975dc2c6e051c010VgnVCM2000000c205a0aRCRD,CALLE NEVADO DEL RUIZ,4,,,MADRID,MADRID,28033,4,PINAR DEL REY,16,HORTALEZA,446165,4480082,40.4696757985277,-3.63504463154674,,
183580,Aparcamiento para residentes. Cándido Mateos,Plazas: 618 Abierto 24 horas  Titularidad: Ayuntamiento de Madrid,0,http://www.madrid.es/sites/v/index.jsp?vgnextchannel=bfa48ab43d6bb410VgnVCM100000171f5a0aRCRD&vgnextoid=b865bdc85c01c010VgnVCM2000000c205a0aRCRD,CALLE VALLE DE MENA,23,,,MADRID,MADRID,28039,4,VALDEZARZA,9,MONCLOA-ARAVACA,439022,4480260,40.47078717988781,-3.7193258238376576,,
13535,Aparcamiento para residentes. Darwin,,0,http://www.madrid.es/sites/v/index.jsp?vgnextchannel=bfa48ab43d6bb410VgnVCM100000171f5a0aRCRD&vgnextoid=dca27339ae51c010VgnVCM2000000c205a0aRCRD,AVENIDA MORATALAZ,58,,,MADRID,MADRID,28030,5,FONTARRON,14,MORATALAZ,444527,4472985,40.405638665853,-3.65375539091826,,
183760,Aparcamiento para residentes. Doce de Octubre,Plazas: 694 Abierto 24 horas  Titularidad: Ayuntamiento de Madrid,1,http://www.madrid.es/sites/v/index.jsp?vgnextchannel=bfa48ab43d6bb410VgnVCM100000171f5a0aRCRD&vgnextoid=4826bdc85c01c010VgnVCM2000000c205a0aRCRD,CALLE ALCALDE SAINZ DE BARANDA,,,,MADRID,MADRID,28009,4,IBIZA,3,RETIRO,442633,4474354,40.4178437921393,-3.67619550529124,,
13630,Aparcamiento para residentes. Doctor Cirajas,Plazas: 324 Abierto 24 horas  Titularidad: Ayuntamiento de Madrid,0,http://www.madrid.es/sites/v/index.jsp?vgnextchannel=bfa48ab43d6bb410VgnVCM100000171f5a0aRCRD&vgnextoid=7d8615cbed51c010VgnVCM2000000c205a0aRCRD,CALLE DOCTOR CIRAJAS,3,,,MADRID,MADRID,28017,2,PUEBLO NUEVO,15,CIUDAD LINEAL,445930,4476291,40.4355062053263,-3.63749208941804,,
13551,Aparcamiento para residentes. Doctor Laguna,Plazas: 537 Abierto 24 horas  Titularidad: Ayuntamiento de Madrid,0,http://www.madrid.es/sites/v/index.jsp?vgnextchannel=bfa48ab43d6bb410VgnVCM100000171f5a0aRCRD&vgnextoid=b7f57339ae51c010VgnVCM2000000c205a0aRCRD,CALLE DOCE DE OCTUBRE,28,,,MADRID,MADRID,28009,6,NIÑO JESUS,3,RETIRO,442856,4474152,40.416038617548956,-3.673543967928384,,
39871,Aparcamiento para residentes. Doménico Scarlatti,Plazas: 480 Abierto 24 horas  Titularidad: Ayuntamiento de Madrid,0,http://www.madrid.es/sites/v/index.jsp?vgnextchannel=bfa48ab43d6bb410VgnVCM100000171f5a0aRCRD&vgnextoid=81e9946be351c010VgnVCM2000000c205a0aRCRD,CALLE DOMENICO SCARLATTI,7,,,MADRID,MADRID,28003,6,VALLEHERMOSO,7,CHAMBERI,439249,4476978,40.4412401903695,-3.71633149805864,,
7410134,Aparcamiento para residentes. El Greco,Plazas: 225 Abierto 24 horas  Titularidad: Ayuntamiento de Madrid,0,http://www.madrid.es/sites/v/index.jsp?vgnextchannel=bfa48ab43d6bb410VgnVCM100000171f5a0aRCRD&vgnextoid=c0869f29bb305410VgnVCM1000000b205a0aRCRD,CALLE EL GRECO,29,-1,,MADRID,MADRID,28011,3,LUCERO,10,LATINA,436589,4473236,40.4073286671443,-3.74731337285804,,
4831001,Aparcamiento para residentes. Elvira,Plazas: 192 Abierto 24 horas  Titularidad: Ayuntamiento de Madrid  Gestión: Empresa Municipal de Transportes (EMT) (más información),0,http://www.madrid.es/sites/v/index.jsp?vgnextchannel=bfa48ab43d6bb410VgnVCM100000171f5a0aRCRD&vgnextoid=ca1cec05bd2a8110VgnVCM2000000c205a0aRCRD,CALLE ELVIRA,36,,,MADRID,MADRID,28028,3,FUENTE DEL BERRO,4,SALAMANCA,443523,4474708,40.4210921187441,-3.66573849295254,,
24106,Aparcamiento para residentes. Emigrantes,Plazas: 281 Abierto 24 horas  Titularidad: Ayuntamiento de Madrid,0,http://www.madrid.es/sites/v/index.jsp?vgnextchannel=bfa48ab43d6bb410VgnVCM100000171f5a0aRCRD&vgnextoid=bca06545f951c010VgnVCM2000000c205a0aRCRD,CALLE MINAYA,1,,,MADRID,MADRID,28043,3,CANILLAS,16,HORTALEZA,446066,4479857,40.467641830775,-3.63619153620736,,
13524,Aparcamiento para residentes. Encomienda de Palacios,Plazas: 320 Abierto 24 horas  Titularidad: Ayuntamiento de Madrid,0,http://www.madrid.es/sites/v/index.jsp?vgnextchannel=bfa48ab43d6bb410VgnVCM100000171f5a0aRCRD&vgnextoid=1ad615cbed51c010VgnVCM2000000c205a0aRCRD,CALLE ENCOMIENDA DE PALACIOS,170,,,MADRID,MADRID,28030,5,FONTARRON,14,MORATALAZ,445402,4472269,40.3992442473467,-3.64337827121037,,
13550,Aparcamiento para residentes. Esfinge,Plazas: 777 Abierto 24 horas  Titularidad: Ayuntamiento de Madrid,0,http://www.madrid.es/sites/v/index.jsp?vgnextchannel=bfa48ab43d6bb410VgnVCM100000171f5a0aRCRD&vgnextoid=600715cbed51c010VgnVCM2000000c205a0aRCRD,CALLE ESFINGE,58,-2,,MADRID,MADRID,28022,7,CANILLEJAS,20,SAN BLAS-CANILLEJAS,448260,4477146,40.4433597743845,-3.61009170061829,,
170634,Aparcamiento para residentes. Espalter,Plazas: 480 Abierto 24 horas  Titularidad: Ayuntamiento de Madrid,0,http://www.madrid.es/sites/v/index.jsp?vgnextchannel=bfa48ab43d6bb410VgnVCM100000171f5a0aRCRD&vgnextoid=4fc4ff632081c010VgnVCM1000000b205a0aRCRD,CALLE ESPALTER,9,,,MADRID,MADRID,28014,5,LOS JERONIMOS,3,RETIRO,441464,4473790,40.4126788946921,-3.68991968676579,,
13558,Aparcamiento para residentes. Esperanza,Plazas: 986 Abierto 24 horas  Titularidad: Ayuntamiento de Madrid,0,http://www.madrid.es/sites/v/index.jsp?vgnextchannel=bfa48ab43d6bb410VgnVCM100000171f5a0aRCRD&vgnextoid=23d27339ae51c010VgnVCM2000000c205a0aRCRD,CALLE GARGANTILLA,2,,,MADRID,MADRID,28005,2,ACACIAS,2,ARGANZUELA,440267,4472278,40.3989760938926,-3.7038907804774,,
81743,Aparcamiento para residentes. Espinillo,Plazas: 155 Abierto 24 horas  Titularidad: Ayuntamiento de Madrid,0,http://www.madrid.es/sites/v/index.jsp?vgnextchannel=bfa48ab43d6bb410VgnVCM100000171f5a0aRCRD&vgnextoid=6b4cc2c6e051c010VgnVCM2000000c205a0aRCRD,CALLE CIUDADANIA,5,0,,MADRID,MADRID,28041,4,LOS ROSALES,17,VILLAVERDE,441261,4467581,40.3567269645095,-3.69174396514792,,
24108,Aparcamiento para residentes. Esteban Villegas,Plazas: 858 Abierto 24 horas  Titularidad: Ayuntamiento de Madrid,0,http://www.madrid.es/sites/v/index.jsp?vgnextchannel=bfa48ab43d6bb410VgnVCM100000171f5a0aRCRD&vgnextoid=e8b16545f951c010VgnVCM2000000c205a0aRCRD,CALLE POETA ESTEBAN DE VILLEGAS,4,,,MADRID,MADRID,28014,5,LOS JERONIMOS,3,RETIRO,441970,4473312,40.40840893273142,-3.683916231954491,,
13572,Aparcamiento para residentes. Estrella Polar,Plazas: 401 Abierto 24 horas  Titularidad: Ayuntamiento de Madrid,0,http://www.madrid.es/sites/v/index.jsp?vgnextchannel=bfa48ab43d6bb410VgnVCM100000171f5a0aRCRD&vgnextoid=b62715cbed51c010VgnVCM2000000c205a0aRCRD,CALLE ESTRELLA POLAR,6,,,MADRID,MADRID,28007,3,ESTRELLA,3,RETIRO,443410,4473549,40.4106446983225,-3.66696068383245,,
24111,Aparcamiento para residentes. Eugenia de Montijo,Plazas: 387 Abierto 24 horas  Titularidad: Ayuntamiento de Madrid,0,http://www.madrid.es/sites/v/index.jsp?vgnextchannel=bfa48ab43d6bb410VgnVCM100000171f5a0aRCRD&vgnextoid=db226545f951c010VgnVCM2000000c205a0aRCRD,CALLE PARQUE EUGENIA DE MONTIJO,5,,,MADRID,MADRID,28047,4,VISTA ALEGRE,11,CARABANCHEL,436159,4470176,40.37973285498474,-3.7520789047195695,,
13573,Aparcamiento para residentes. Ferrol,Plazas: 350 Abierto 24 horas  Titularidad: Ayuntamiento de Madrid,0,http://www.madrid.es/sites/v/index.jsp?vgnextchannel=bfa48ab43d6bb410VgnVCM100000171f5a0aRCRD&vgnextoid=e30115cbed51c010VgnVCM2000000c205a0aRCRD,AVENIDA EL FERROL,34,,,MADRID,MADRID,28029,4,EL PILAR,8,FUENCARRAL-EL PARDO,439994,4480738,40.47516452791494,-3.707898978806774,,
13498,Aparcamiento para residentes. Finisterre,Plazas: 305 Abierto 24 horas  Titularidad: Ayuntamiento de Madrid,0,http://www.madrid.es/sites/v/index.jsp?vgnextchannel=bfa48ab43d6bb410VgnVCM100000171f5a0aRCRD&vgnextoid=0d4715cbed51c010VgnVCM2000000c205a0aRCRD,CALLE FINISTERRE,21,,,MADRID,MADRID,28029,5,LA PAZ,8,FUENCARRAL-EL PARDO,440443,4481128,40.4787115545523,-3.70264427058508,,
81745,Aparcamiento para residentes. Fonsagrada,Plazas: 253 Abierto 24 horas  Titularidad: Ayuntamiento de Madrid,0,http://www.madrid.es/sites/v/index.jsp?vgnextchannel=bfa48ab43d6bb410VgnVCM100000171f5a0aRCRD&vgnextoid=ed7dc2c6e051c010VgnVCM2000000c205a0aRCRD,PLAZA ARTEIJO,10,,,MADRID,MADRID,28029,4,EL PILAR,8,FUENCARRAL-EL PARDO,440062,4481018,40.477694803073895,-3.7071228764557786,,
4831271,Aparcamiento para residentes. Francisco Altimiras,Plazas: 59 Abierto 24 horas  Titularidad: Ayuntamiento de Madrid  Gestión: Empresa Municipal de Transportes (EMT) (más información),0,http://www.madrid.es/sites/v/index.jsp?vgnextchannel=bfa48ab43d6bb410VgnVCM100000171f5a0aRCRD&vgnextoid=c0055b87103a8110VgnVCM2000000c205a0aRCRD,CALLE FRANCISCO ALTIMIRAS,2,,SEMIESQUINA CON LA AV. DE LOS TOREROS,MADRID,MADRID,28028,4,GUINDALERA,4,SALAMANCA,443720,4476105,40.4336887886822,-3.663538450106072,,
13635,Aparcamiento para residentes. Francisco Rioja,Plazas: 392 Abierto 24 horas  Titularidad: Ayuntamiento de Madrid,1,http://www.madrid.es/sites/v/index.jsp?vgnextchannel=bfa48ab43d6bb410VgnVCM100000171f5a0aRCRD&vgnextoid=537715cbed51c010VgnVCM2000000c205a0aRCRD,CALLE LUIS RUIZ,27,,,MADRID,MADRID,28017,2,PUEBLO NUEVO,15,CIUDAD LINEAL,445873,4475766,40.430778722730366,-3.6381242830303946,,
13634,Aparcamiento para residentes. Francos Rodríguez,Plazas: 296 Abierto 24 horas  Titularidad: Ayuntamiento de Madrid,1,http://www.madrid.es/sites/v/index.jsp?vgnextchannel=bfa48ab43d6bb410VgnVCM100000171f5a0aRCRD&vgnextoid=a99715cbed51c010VgnVCM2000000c205a0aRCRD,CALLE NUMANCIA,63,,,MADRID,MADRID,28039,1,BELLAS VISTAS,6,TETUAN,439795,4478705,40.456831249177,-3.71005050591214,,
24119,Aparcamiento para residentes. Galileo,Plazas: 527 Abierto 24 horas  Titularidad: Ayuntamiento de Madrid,0,http://www.madrid.es/sites/v/index.jsp?vgnextchannel=bfa48ab43d6bb410VgnVCM100000171f5a0aRCRD&vgnextoid=03d06545f951c010VgnVCM2000000c205a0aRCRD,CALLE BLASCO DE GARAY,38,,,MADRID,MADRID,28015,2,ARAPILES,7,CHAMBERI,439660,4476130,40.4336318167522,-3.71140097593995,,
13525,Aparcamiento para residentes. García Escámez,Plazas: 260 Abierto 24 horas  Titularidad: Ayuntamiento de Madrid,0,http://www.madrid.es/sites/v/index.jsp?vgnextchannel=bfa48ab43d6bb410VgnVCM100000171f5a0aRCRD&vgnextoid=46e715cbed51c010VgnVCM2000000c205a0aRCRD,CALLE ANSELMO LORENZO,11,,,MADRID,MADRID,28044,7,LAS AGUILAS,10,LATINA,434687,4470444,40.3820357799705,-3.7694517822779,,
13534,Aparcamiento para residentes. García Tapia,Plazas: 252 Abierto 24 horas  Titularidad: Ayuntamiento de Madrid,0,http://www.madrid.es/sites/v/index.jsp?vgnextchannel=bfa48ab43d6bb410VgnVCM100000171f5a0aRCRD&vgnextoid=663215cbed51c010VgnVCM2000000c205a0aRCRD,AVENIDA DOCTOR GARCIA TAPIA,51,,,MADRID,MADRID,28030,3,MARROQUINA,14,MORATALAZ,445240,4473666,40.4118131755341,-3.64541031210654,,
13527,Aparcamiento para residentes. Garrovillas,Plazas: 324 Abierto 24 horas  Titularidad: Ayuntamiento de Madrid,0,http://www.madrid.es/sites/v/index.jsp?vgnextchannel=bfa48ab43d6bb410VgnVCM100000171f5a0aRCRD&vgnextoid=ffb715cbed51c010VgnVCM2000000c205a0aRCRD,CALLE GARROVILLAS,9,,,MADRID,MADRID,28044,7,LAS AGUILAS,10,LATINA,433912,4470229,40.38003632100852,-3.7785510082435763,,
81746,Aparcamiento para residentes. General Gallegos,Plazas: 101 Abierto 24 horas  Titularidad: Ayuntamiento de Madrid,0,http://www.madrid.es/sites/v/index.jsp?vgnextchannel=bfa48ab43d6bb410VgnVCM100000171f5a0aRCRD&vgnextoid=34adc2c6e051c010VgnVCM2000000c205a0aRCRD,CALLE PADRE DAMIAN,39,,,MADRID,MADRID,28036,5,NUEVA ESPAÑA,5,CHAMARTIN,441874,4479182,40.46128190009474,-3.685586569654305,,
24120,Aparcamiento para residentes. General Lacy,Plazas: 663 Abierto 24 horas  Titularidad: Ayuntamiento de madrid,0,http://www.madrid.es/sites/v/index.jsp?vgnextchannel=bfa48ab43d6bb410VgnVCM100000171f5a0aRCRD&vgnextoid=59f06545f951c010VgnVCM2000000c205a0aRCRD,CALLE GENERAL LACY,2,,ENTRE C/ ÁNCORA Y C/ MÉNDEZ ÁLVARO,MADRID,MADRID,28045,6,PALOS DE MOGUER,2,ARGANZUELA,441393,4472724,40.4030667634025,-3.69065809480978,,
13520,Aparcamiento para residentes. Gerardo Cordón,Plazas: 219 Abierto 24 horas  Titularidad: Ayuntamiento de Madrid,0,http://www.madrid.es/sites/v/index.jsp?vgnextchannel=bfa48ab43d6bb410VgnVCM100000171f5a0aRCRD&vgnextoid=ac087339ae51c010VgnVCM2000000c205a0aRCRD,CALLE GERARDO CORDON,46,-2,,MADRID,MADRID,28017,1,VENTAS,15,CIUDAD LINEAL,444647,4475314,40.42662400325405,-3.652542375709883,,
13574,Aparcamiento para residentes. Germán Pérez Carrasco,Plazas: 321 Abierto 24 horas  Titularidad: Ayuntamiento de Madrid,0,http://www.madrid.es/sites/v/index.jsp?vgnextchannel=bfa48ab43d6bb410VgnVCM100000171f5a0aRCRD&vgnextoid=f2387339ae51c010VgnVCM2000000c205a0aRCRD,CALLE VIRGEN DEL SAGRARIO,8,,ESQUINA C/ GERMÁN PÉREZ CARRASCO,MADRID,MADRID,28027,3,QUINTANA,15,CIUDAD LINEAL,445056,4476174,40.4343990447923,-3.6477943374274,,
13522,Aparcamiento para residentes. Goya I,Plazas: 668 Abierto 24 horas  Titularidad: Ayuntamiento de Madrid,0,http://www.madrid.es/sites/v/index.jsp?vgnextchannel=bfa48ab43d6bb410VgnVCM100000171f5a0aRCRD&vgnextoid=49587339ae51c010VgnVCM2000000c205a0aRCRD,CALLE GOYA,92,,,MADRID,MADRID,28009,2,GOYA,4,SALAMANCA,443020,4475098,40.424572633502564,-3.6717032128063,,
24121,Aparcamiento para residentes. Guadalete,Plazas: 290 Abierto 24 horas  Titularidad: Ayuntamiento de Madrid,0,http://www.madrid.es/sites/v/index.jsp?vgnextchannel=bfa48ab43d6bb410VgnVCM100000171f5a0aRCRD&vgnextoid=af116545f951c010VgnVCM2000000c205a0aRCRD,CALLE GUADALETE,12,,,MADRID,MADRID,28019,1,COMILLAS,11,CARABANCHEL,439330,4471202,40.3892153292086,-3.71482104742718,,
13615,Aparcamiento para residentes. Gómez Ulla,Plazas: 191 Abierto 24 horas  Titularidad: Ayuntamiento de Madrid,0,http://www.madrid.es/sites/v/index.jsp?vgnextchannel=bfa48ab43d6bb410VgnVCM100000171f5a0aRCRD&vgnextoid=c3b615cbed51c010VgnVCM2000000c205a0aRCRD,CALLE DOCTOR GOMEZ ULLA,11,,LATERAL PARQUE EVA DUARTE DE PERÓN,MADRID,MADRID,28028,4,GUINDALERA,4,SALAMANCA,443354,4475703,40.43003872255172,-3.667817175542646,,
13627,Aparcamiento para residentes. Illescas,Plazas: 261 Abierto 24 horas  Titularidad: Ayuntamiento de Madrid,0,http://www.madrid.es/sites/v/index.jsp?vgnextchannel=bfa48ab43d6bb410VgnVCM100000171f5a0aRCRD&vgnextoid=9f787339ae51c010VgnVCM2000000c205a0aRCRD,CALLE ILLESCAS,1,,,MADRID,MADRID,28024,4,ALUCHE,10,LATINA,434979,4472174,40.3976368775692,-3.76617797063072,,
183559,Aparcamiento para residentes. Ilustración,Plazas: 142   Abierto 24 horas  Titularidad: Ayuntamiento de Madrid,0,http://www.madrid.es/sites/v/index.jsp?vgnextchannel=bfa48ab43d6bb410VgnVCM100000171f5a0aRCRD&vgnextoid=abd5bdc85c01c010VgnVCM2000000c205a0aRCRD,CALLE ISLAS CIES,25,,,MADRID,MADRID,28035,3,PEÑA GRANDE,8,FUENCARRAL-EL PARDO,439110,4481300,40.480165772347696,-3.7183829353444833,,
5421792,Aparcamiento para residentes. Ilíada,Plazas : 333 Abierto 24 Horas  Titularidad: Ayuntamiento de Madrid,0,http://www.madrid.es/sites/v/index.jsp?vgnextchannel=bfa48ab43d6bb410VgnVCM100000171f5a0aRCRD&vgnextoid=a89fa6b5ebbd3210VgnVCM1000000b205a0aRCRD,CALLE LA ILIADA,1,,,MADRID,MADRID,28022,7,CANILLEJAS,20,SAN BLAS-CANILLEJAS,448381,4476282,40.4355831247766,-3.60860102706914,,
13502,Aparcamiento para residentes. Isla de Arosa,Plazas: 189 Abierto 24 horas  Titularidad: Ayuntamiento de Madrid,0,http://www.madrid.es/sites/v/index.jsp?vgnextchannel=bfa48ab43d6bb410VgnVCM100000171f5a0aRCRD&vgnextoid=e5a87339ae51c010VgnVCM2000000c205a0aRCRD,CALLE ISLA DE AROSA,2,,,MADRID,MADRID,28035,3,PEÑA GRANDE,8,FUENCARRAL-EL PARDO,439363,4481310,40.480274384539456,-3.715403636163851,,
13575,Aparcamiento para residentes. Isla de Ons,Plazas: 667 Abierto 24 horas  Titularidad: Ayuntamiento de Madrid,0,http://www.madrid.es/sites/v/index.jsp?vgnextchannel=bfa48ab43d6bb410VgnVCM100000171f5a0aRCRD&vgnextoid=3cc87339ae51c010VgnVCM2000000c205a0aRCRD,CALLE ISLA DE ONS,5,,,MADRID,MADRID,28035,3,PEÑA GRANDE,8,FUENCARRAL-EL PARDO,438821,4481281,40.4799733680742,-3.72179162558578,,
13576,Aparcamiento para residentes. Isla de Tavira,Plazas: 326 Abierto 24 horas  Titularidad: Ayuntamiento de Madrid,0,http://www.madrid.es/sites/v/index.jsp?vgnextchannel=bfa48ab43d6bb410VgnVCM100000171f5a0aRCRD&vgnextoid=82f87339ae51c010VgnVCM2000000c205a0aRCRD,CALLE ISLA DE TAVIRA,3,,,MADRID,MADRID,28035,3,PEÑA GRANDE,8,FUENCARRAL-EL PARDO,439120,4481415,40.481195113179496,-3.718279041839923,,
81748,Aparcamiento para residentes. Islas Filipinas,Plazas: 397. Abierto 24 horas.  Titularidad: Ayuntamiento de Madrid.,0,http://www.madrid.es/sites/v/index.jsp?vgnextchannel=bfa48ab43d6bb410VgnVCM100000171f5a0aRCRD&vgnextoid=5ebcc2c6e051c010VgnVCM2000000c205a0aRCRD,CALLE CEA BERMUDEZ,49,,,MADRID,MADRID,28003,1,GAZTAMBIDE,7,CHAMBERI,439387,4476727,40.438987934763,-3.71467601723796,,
13577,Aparcamiento para residentes. Iván de Vargas,Plazas: 199 Abierto 24 horas  Titularidad: Ayuntamiento de Madrid.,0,http://www.madrid.es/sites/v/index.jsp?vgnextchannel=bfa48ab43d6bb410VgnVCM100000171f5a0aRCRD&vgnextoid=d8197339ae51c010VgnVCM2000000c205a0aRCRD,TRAVESIA IVAN DE VARGAS,4,-2,,MADRID,MADRID,28019,3,SAN ISIDRO,11,CARABANCHEL,438524,4472757,40.4031629103554,-3.72446327913775,,
13546,Aparcamiento para residentes. Jacinto Verdaguer,Plazas: 545 Abierto 24 horas  Titularidad: Ayuntamiento de Madrid,0,http://www.madrid.es/sites/v/index.jsp?vgnextchannel=bfa48ab43d6bb410VgnVCM100000171f5a0aRCRD&vgnextoid=2f397339ae51c010VgnVCM2000000c205a0aRCRD,CALLE JACINTO VERDAGUER,25,-4,,MADRID,MADRID,28019,2,OPAÑEL,11,CARABANCHEL,438999,4471862,40.3951283273511,-3.71878014908902,,
13529,Aparcamiento para residentes. Joaquín María López,Plazas: 464 Abierto 24 horas  Titularidad: Ayuntamiento de Madrid,0,http://www.madrid.es/sites/v/index.jsp?vgnextchannel=bfa48ab43d6bb410VgnVCM100000171f5a0aRCRD&vgnextoid=75697339ae51c010VgnVCM2000000c205a0aRCRD,CALLE JOAQUIN MARIA LOPEZ,39,,,MADRID,MADRID,28015,1,GAZTAMBIDE,7,CHAMBERI,439414,4476552,40.4374098846186,-3.71434270556613,,
63334,Aparcamiento para residentes. Josep Pla,Plazas: 239 Abierto 24 horas  Titularidad: Ayuntamiento de Madrid,0,http://www.madrid.es/sites/v/index.jsp?vgnextchannel=bfa48ab43d6bb410VgnVCM100000171f5a0aRCRD&vgnextoid=d70a946be351c010VgnVCM2000000c205a0aRCRD,CALLE LOPEZ DE HOYOS,57,,,MADRID,MADRID,28002,3,CIUDAD JARDIN,5,CHAMARTIN,442549,4477052,40.4421417450308,-3.67742780223251,,
7471768,Aparcamiento para residentes. José Abascal,Plazas: 126 Abierto 24 horas  Titularidad: Ayuntamiento de Madrid,0,http://www.madrid.es/sites/v/index.jsp?vgnextchannel=bfa48ab43d6bb410VgnVCM100000171f5a0aRCRD&vgnextoid=7ea46cd2546d5410VgnVCM2000000c205a0aRCRD,CALLE JOSE ABASCAL,54,,,MADRID,MADRID,28003,4,ALMAGRO,7,CHAMBERI,441212,4476607,40.4380386607844,-3.69314664084057,,
13526,Aparcamiento para residentes. José de Cadalso,Plazas: 259 Abierto 24 horas  Titularidad: Ayuntamiento de Madrid,0,http://www.madrid.es/sites/v/index.jsp?vgnextchannel=bfa48ab43d6bb410VgnVCM100000171f5a0aRCRD&vgnextoid=cb897339ae51c010VgnVCM2000000c205a0aRCRD,CALLE SOLEDAD CAZORLA,51,-1,,MADRID,MADRID,28044,7,LAS AGUILAS,10,LATINA,434776,4469790,40.37614333918351,-3.7683293552234054,,
13556,Aparcamiento para residentes. José del Hierro,Plazas: 648 Abierto 24 horas  Titularidad: Ayuntamiento de Madrid,0,http://www.madrid.es/sites/v/index.jsp?vgnextchannel=bfa48ab43d6bb410VgnVCM100000171f5a0aRCRD&vgnextoid=12b97339ae51c010VgnVCM2000000c205a0aRCRD,CALLE HERMANOS DE PABLO,44,0,,MADRID,MADRID,28027,4,CONCEPCION,15,CIUDAD LINEAL,445148,4476620,40.4384225390412,-3.6467466652905,,
13578,Aparcamiento para residentes. José Luis Arrese,Plazas: 380 Abierto 24 horas  Titularidad: Ayuntamiento de Madrid,0,http://www.madrid.es/sites/v/index.jsp?vgnextchannel=bfa48ab43d6bb410VgnVCM100000171f5a0aRCRD&vgnextoid=68d97339ae51c010VgnVCM2000000c205a0aRCRD,CALLE POETA BLAS DE OTERO,22,,,MADRID,MADRID,28017,1,VENTAS,15,CIUDAD LINEAL,444488,4474640,40.42053957508049,-3.6543546216513394,,
13579,Aparcamiento para residentes. Juan de Vera,Plazas: 512 Abierto 24 horas  Titularidad: Ayuntamiento de Madrid,0,http://www.madrid.es/sites/v/index.jsp?vgnextchannel=bfa48ab43d6bb410VgnVCM100000171f5a0aRCRD&vgnextoid=4eba7339ae51c010VgnVCM2000000c205a0aRCRD,CALLE JUAN DE VERA,15,,,MADRID,MADRID,28045,5,DELICIAS,2,ARGANZUELA,441264,4471957,40.39615507486834,-3.692104179001404,,
7432674,Aparcamiento para residentes. Juan Esplandiú,Plazas: 249 Abierto 24 horas  Titularidad: Ayuntamiento de Madrid,0,http://www.madrid.es/sites/v/index.jsp?vgnextchannel=bfa48ab43d6bb410VgnVCM100000171f5a0aRCRD&vgnextoid=865c3d02e3b35410VgnVCM1000000b205a0aRCRD,CALLE JUAN ESPLANDIU,1,,,MADRID,MADRID,28007,3,ESTRELLA,3,RETIRO,443494,4474116,40.4157528095955,-3.66602854953252,,
13541,Aparcamiento para residentes. Juan Francisco Luján I,Plazas: 198 Abierto 24 horas  Titularidad: Ayuntamiento de Madrid,0,http://www.madrid.es/sites/v/index.jsp?vgnextchannel=bfa48ab43d6bb410VgnVCM100000171f5a0aRCRD&vgnextoid=d04615cbed51c010VgnVCM2000000c205a0aRCRD,CALLE CORREGIDOR JUAN FRANCISCO DE LUJAN,1,,,MADRID,MADRID,28030,5,FONTARRON,14,MORATALAZ,444806,4472753,40.4035636327947,-3.65044331843857,,
17452,Aparcamiento para residentes. Juan Francisco Luján II,Plazas: 298 Abierto 24 horas  Titularidad: Ayuntamiento de Madrid,0,http://www.madrid.es/sites/v/index.jsp?vgnextchannel=bfa48ab43d6bb410VgnVCM100000171f5a0aRCRD&vgnextoid=66806545f951c010VgnVCM2000000c205a0aRCRD,CALLE CORREGIDOR JUAN FRANCISCO DE LUJAN,60,,,MADRID,MADRID,28030,5,FONTARRON,14,MORATALAZ,445021,4472594,40.40214747309015,-3.647893433929952,,
13505,Aparcamiento para residentes. Juan Hurtado de Mendoza,Plazas: 269 Abierto 24 horas  Titularidad: Ayuntamiento de Madrid,0,http://www.madrid.es/sites/v/index.jsp?vgnextchannel=bfa48ab43d6bb410VgnVCM100000171f5a0aRCRD&vgnextoid=94ea7339ae51c010VgnVCM2000000c205a0aRCRD,CALLE JUAN HURTADO DE MENDOZA,8,,,MADRID,MADRID,28036,5,NUEVA ESPAÑA,5,CHAMARTIN,441775,4479058,40.46016040184583,-3.6867407236690504,,
5556588,Aparcamiento para residentes. Juan Ramón Jiménez,Plazas: 401 Abierto 24 horas  Titularidad: Ayuntamiento de Madrid,0,http://www.madrid.es/sites/v/index.jsp?vgnextchannel=bfa48ab43d6bb410VgnVCM100000171f5a0aRCRD&vgnextoid=055a0cc0caf66210VgnVCM1000000b205a0aRCRD,CALLE JUAN RAMON JIMENEZ,49,,,MADRID,MADRID,28036,5,NUEVA ESPAÑA,5,CHAMARTIN,441747,4479389,40.4631368719306,-3.68710046083546,,
81768,Aparcamiento para residentes. Lagasca,Plazas: 327 Abierto 24 horas  Titularidad: Ayuntamiento de Madrid,0,http://www.madrid.es/sites/v/index.jsp?vgnextchannel=bfa48ab43d6bb410VgnVCM100000171f5a0aRCRD&vgnextoid=089cc2c6e051c010VgnVCM2000000c205a0aRCRD,CALLE DIEGO DE LEON,11,,,MADRID,MADRID,28006,6,CASTELLANA,4,SALAMANCA,441998,4476272,40.43506964165062,-3.68384686761382,,
13580,Aparcamiento para residentes. Lardero,Plazas: 382 Abierto 24 horas  Titularidad: Ayuntamiento de Madrid,0,http://www.madrid.es/sites/v/index.jsp?vgnextchannel=bfa48ab43d6bb410VgnVCM100000171f5a0aRCRD&vgnextoid=313b7339ae51c010VgnVCM2000000c205a0aRCRD,CALLE LARDERO,3-B,,,MADRID,MADRID,28032,,AMBROZ,,VICALVARO,448283,4473667,40.4101369517756,-3.610828352314449,,
13581,Aparcamiento para residentes. Maldonado,Plazas: 721 Abierto 24 horas,0,http://www.madrid.es/sites/v/index.jsp?vgnextchannel=bfa48ab43d6bb410VgnVCM100000171f5a0aRCRD&vgnextoid=875b7339ae51c010VgnVCM2000000c205a0aRCRD,CALLE MALDONADO,34,,,MADRID,MADRID,28006,5,LISTA,4,SALAMANCA,442405,4476113,40.43366755605813,-3.679035794267012,,
13582,Aparcamiento para residentes. Manizales,Plazas: 401 Abierto 24 horas,0,http://www.madrid.es/sites/v/index.jsp?vgnextchannel=bfa48ab43d6bb410VgnVCM100000171f5a0aRCRD&vgnextoid=dd7b7339ae51c010VgnVCM2000000c205a0aRCRD,CALLE MANIZALES,1,,,MADRID,MADRID,28033,4,PINAR DEL REY,16,HORTALEZA,445998,4480531,40.4737064681745,-3.6370593589937,,
24122,Aparcamiento para residentes. Manuel Noya,Plazas: 492 Abierto 24 horas,0,http://www.madrid.es/sites/v/index.jsp?vgnextchannel=bfa48ab43d6bb410VgnVCM100000171f5a0aRCRD&vgnextoid=f5416545f951c010VgnVCM2000000c205a0aRCRD,CALLE MANUEL NOYA,2,,(JARDINES),MADRID,MADRID,28026,5,MOSCARDO,,USERA,439582,4471208,40.3892836806595,-3.71185039642932,,
13583,Aparcamiento para residentes. Marcos de Orueta,Plazas: 196 Abierto 24 horas,0,http://www.madrid.es/sites/v/index.jsp?vgnextchannel=bfa48ab43d6bb410VgnVCM100000171f5a0aRCRD&vgnextoid=24ab7339ae51c010VgnVCM2000000c205a0aRCRD,CALLE ANGEL MUGICA,9,,,MADRID,MADRID,28034,6,VALVERDE,8,FUENCARRAL-EL PARDO,441853,4481789,40.48476485902592,-3.6860667411043053,,
13585,Aparcamiento para residentes. Marqués de Corbera I,Plazas: 287 Abierto 24 horas,0,http://www.madrid.es/sites/v/index.jsp?vgnextchannel=bfa48ab43d6bb410VgnVCM100000171f5a0aRCRD&vgnextoid=3a2115cbed51c010VgnVCM2000000c205a0aRCRD,AVENIDA MARQUES DE CORBERA,4,-2,ESQUINA C/ JOSÉ LUIS ARRESE,MADRID,MADRID,28017,1,VENTAS,15,CIUDAD LINEAL,444298,4474802,40.4219886928314,-3.65661292002709,,
13584,Aparcamiento para residentes. Marqués de Corbera II,Plazas: 203 Abierto 24 horas  Titularidad: Ayuntamiento de Madrid,0,http://www.madrid.es/sites/v/index.jsp?vgnextchannel=bfa48ab43d6bb410VgnVCM100000171f5a0aRCRD&vgnextoid=805115cbed51c010VgnVCM2000000c205a0aRCRD,AVENIDA MARQUES DE CORBERA,64,-2,CONFLUENCIA CON PASO ELEVADO AV. DAROCA,MADRID,MADRID,28017,1,VENTAS,15,CIUDAD LINEAL,444922,4475405,40.4274616090481,-3.64930765911692,,
4831164,Aparcamiento para residentes. Marqués de Samaranch,Plazas: 233 Abierto 24 horas.  Titularidad: Ayuntamiento de Madrid  Gestión: Empresa Municipal de Transportes (EMT) (más información),0,http://www.madrid.es/sites/v/index.jsp?vgnextchannel=bfa48ab43d6bb410VgnVCM100000171f5a0aRCRD&vgnextoid=09a455750f2a8110VgnVCM2000000c205a0aRCRD,PASEO IMPERIAL,20,,,MADRID,MADRID,28005,1,IMPERIAL,2,ARGANZUELA,439070,4473272,40.40784029469167,-3.7180809623916047,,
36275,Aparcamiento para residentes. Marqués de Suances,Plazas: 339 Abierto 24 horas,0,http://www.madrid.es/sites/v/index.jsp?vgnextchannel=bfa48ab43d6bb410VgnVCM100000171f5a0aRCRD&vgnextoid=60322c798651c010VgnVCM2000000c205a0aRCRD,PLAZA ENSIDESA,6,-3,,MADRID,MADRID,28027,8,EL SALVADOR,20,SAN BLAS-CANILLEJAS,447133,4477221,40.4439638447844,-3.62339733040465,,
13490,Aparcamiento para residentes. Marqués de Zafra,Plazas: 192 Abierto 24 horas,0,http://www.madrid.es/sites/v/index.jsp?vgnextchannel=bfa48ab43d6bb410VgnVCM100000171f5a0aRCRD&vgnextoid=7acb7339ae51c010VgnVCM2000000c205a0aRCRD,PASEO MARQUES DE ZAFRA,63,,ESQUINA C/ SANCHO DÁVILA,MADRID,MADRID,28028,3,FUENTE DEL BERRO,4,SALAMANCA,443897,4475164,40.4252185590821,-3.66136241027925,,
13521,Aparcamiento para residentes. Marroquina,Plazas: 683 Abierto 24 horas,0,http://www.madrid.es/sites/v/index.jsp?vgnextchannel=bfa48ab43d6bb410VgnVCM100000171f5a0aRCRD&vgnextoid=c0fb7339ae51c010VgnVCM2000000c205a0aRCRD,CALLE CAMINO DE LOS VINATEROS,107,,,MADRID,MADRID,28030,3,MARROQUINA,14,MORATALAZ,445103,4473333,40.4088102763508,-3.64698673546286,,
24125,Aparcamiento para residentes. Martín de Alzaga,Plazas: 565 Abierto 24 horas,0,http://www.madrid.es/sites/v/index.jsp?vgnextchannel=bfa48ab43d6bb410VgnVCM100000171f5a0aRCRD&vgnextoid=3a7f6545f951c010VgnVCM2000000c205a0aRCRD,CALLE ALCALDE MARTIN DE ALZAGA,6,,,MADRID,MADRID,28039,4,VALDEZARZA,9,MONCLOA-ARAVACA,439285,4479396,40.4630233258538,-3.71613987805222,,
24127,Aparcamiento para residentes. Matilde Gayo,Plazas: 232 Abierto 24 horas,0,http://www.madrid.es/sites/v/index.jsp?vgnextchannel=bfa48ab43d6bb410VgnVCM100000171f5a0aRCRD&vgnextoid=4c616545f951c010VgnVCM2000000c205a0aRCRD,CALLE MATILDE GAYO,4,,,MADRID,MADRID,28026,5,MOSCARDO,12,USERA,440340,4471279,40.3899749531456,-3.70292626458164,,
46136,Aparcamiento para residentes. Melchor Fernández Almagro,Plazas: 255 Abierto 24 horas  Titularidad: Ayuntamiento de Madrid,0,http://www.madrid.es/sites/v/index.jsp?vgnextchannel=bfa48ab43d6bb410VgnVCM100000171f5a0aRCRD&vgnextoid=3bb9946be351c010VgnVCM2000000c205a0aRCRD,CALLE GINZO DE LIMIA,11,,,MADRID,MADRID,28029,4,EL PILAR,8,FUENCARRAL-EL PARDO,440316,4480775,40.47551560842131,-3.704101281543605,,
13531,Aparcamiento para residentes. Menasalbas,Plazas: 220 Abierto 24 horas  Titularidad: Ayuntamiento de Madrid,0,http://www.madrid.es/sites/v/index.jsp?vgnextchannel=bfa48ab43d6bb410VgnVCM100000171f5a0aRCRD&vgnextoid=171c7339ae51c010VgnVCM2000000c205a0aRCRD,PLAZA AHORRO,6,-3,,MADRID,MADRID,28041,5,LOS ANGELES,17,VILLAVERDE,440914,4468138,40.3617243137127,-3.69587809977934,,
183550,Aparcamiento para residentes. Menorca,Plazas: 862 Abierto: 24 horas  Titularidad: Ayuntamiento de Madrid,1,http://www.madrid.es/sites/v/index.jsp?vgnextchannel=bfa48ab43d6bb410VgnVCM100000171f5a0aRCRD&vgnextoid=9e46bdc85c01c010VgnVCM2000000c205a0aRCRD,CALLE NARVAEZ,,,,MADRID,MADRID,28009,2,GOYA,4,SALAMANCA,442641,4474589,40.41995872846091,-3.676118113622223,,
13586,Aparcamiento para residentes. Mercedes Arteaga,Plazas: 217 Abierto: 24 horas  Titularidad: Ayuntamiento de Madrid,0,http://www.madrid.es/sites/v/index.jsp?vgnextchannel=bfa48ab43d6bb410VgnVCM100000171f5a0aRCRD&vgnextoid=6d3c7339ae51c010VgnVCM2000000c205a0aRCRD,CALLE MERCEDES ARTEAGA,20,,,MADRID,MADRID,28019,2,OPAÑEL,11,CARABANCHEL,438723,4471649,40.3931911407945,-3.72201571162959,,
81792,Aparcamiento para residentes. Miguel Ángel,Plazas: 87 Abierto: 24 horas  Titularidad: Ayuntamiento de Madrid,0,http://www.madrid.es/sites/v/index.jsp?vgnextchannel=bfa48ab43d6bb410VgnVCM100000171f5a0aRCRD&vgnextoid=8acdc2c6e051c010VgnVCM2000000c205a0aRCRD,CALLE MIGUEL ANGEL,27,,,MADRID,MADRID,28010,4,ALMAGRO,7,CHAMBERI,441384,4476455,40.436675854674,-3.69110236627779,,
13508,Aparcamiento para residentes. Mirabel,Plazas: 617 Abierto: 24 horas  Titularidad: Ayuntamiento de Madrid,0,http://www.madrid.es/sites/v/index.jsp?vgnextchannel=bfa48ab43d6bb410VgnVCM100000171f5a0aRCRD&vgnextoid=b36c7339ae51c010VgnVCM2000000c205a0aRCRD,PLAZA CUACOS DE YUSTE,1,,,MADRID,MADRID,28044,7,LAS AGUILAS,10,LATINA,433730,4470115,40.37899232610295,-3.780680788867553,,
13587,Aparcamiento para residentes. Misterios,Plazas: 183 Abierto: 24 horas  Titularidad: Ayuntamiento de Madrid,0,http://www.madrid.es/sites/v/index.jsp?vgnextchannel=bfa48ab43d6bb410VgnVCM100000171f5a0aRCRD&vgnextoid=0a8c7339ae51c010VgnVCM2000000c205a0aRCRD,CALLE MISTERIOS,1,,,MADRID,MADRID,28027,3,QUINTANA,15,CIUDAD LINEAL,445791,4476531,40.4376599536045,-3.63915404284741,,
13588,Aparcamiento para residentes. Mondariz,Plazas: 282 Abierto 24 horas  Titularidad: Ayuntamiento de Madrid,0,http://www.madrid.es/sites/v/index.jsp?vgnextchannel=bfa48ab43d6bb410VgnVCM100000171f5a0aRCRD&vgnextoid=98747339ae51c010VgnVCM2000000c205a0aRCRD,PLAZA MONDARIZ,14,,,MADRID,MADRID,28029,4,EL PILAR,8,FUENCARRAL-EL PARDO,440156,4481078,40.4782411590293,-3.70601872207153,,
13589,Aparcamiento para residentes. Montevideo,Plazas: 290 Abierto 24 horas  Titularidad: Ayuntamiento de Madrid,0,http://www.madrid.es/sites/v/index.jsp?vgnextchannel=bfa48ab43d6bb410VgnVCM100000171f5a0aRCRD&vgnextoid=50bc7339ae51c010VgnVCM2000000c205a0aRCRD,CALLE REINA MERCEDES,25,,,MADRID,MADRID,28020,2,CUATRO CAMINOS,6,TETUAN,440988,4478040,40.450927803493,-3.69592480077532,,
81770,Aparcamiento para residentes. Moralzarzal,Plazas: 224 Abierto 24 horas  Titularidad: Ayuntamiento de Madrid,0,http://www.madrid.es/sites/v/index.jsp?vgnextchannel=bfa48ab43d6bb410VgnVCM100000171f5a0aRCRD&vgnextoid=d0fdc2c6e051c010VgnVCM2000000c205a0aRCRD,CALLE MORALZARZAL,84,,,MADRID,MADRID,28034,7,MIRASIERRA,8,FUENCARRAL-EL PARDO,439626,4482832,40.4939979884242,-3.71243936891058,,
13540,Aparcamiento para residentes. Moratalaz,Plazas: 379 Abierto 24 horas  Titularidad: Ayuntamiento de Madrid,0,http://www.madrid.es/sites/v/index.jsp?vgnextchannel=bfa48ab43d6bb410VgnVCM100000171f5a0aRCRD&vgnextoid=d67115cbed51c010VgnVCM2000000c205a0aRCRD,AVENIDA MORATALAZ,194,,,MADRID,MADRID,28030,6,VINATEROS,14,MORATALAZ,445535,4473396,40.4094083553622,-3.6419048476584,,
13516,Aparcamiento para residentes. Müller,Plazas: 139 Abierto 24 horas  Titularidad: Ayuntamiento de Madrid,0,http://www.madrid.es/sites/v/index.jsp?vgnextchannel=bfa48ab43d6bb410VgnVCM100000171f5a0aRCRD&vgnextoid=a6dc7339ae51c010VgnVCM2000000c205a0aRCRD,PASAJE REMONTA,6,,,MADRID,MADRID,28039,5,VALDEACEDERAS,6,TETUAN,440946,4479470,40.46381021946,-3.69655685033995,,
13497,Aparcamiento para residentes. Narváez,Plazas: 523 Abierto 24 horas  Titularidad: Ayuntamiento de Madrid,0,http://www.madrid.es/sites/v/index.jsp?vgnextchannel=bfa48ab43d6bb410VgnVCM100000171f5a0aRCRD&vgnextoid=fcfc7339ae51c010VgnVCM2000000c205a0aRCRD,CALLE NARVAEZ,21,,,MADRID,MADRID,28009,2,GOYA,4,SALAMANCA,442648,4474820,40.4220424811695,-3.67605484022947,,
81793,Aparcamiento para residentes. Navalmoral de la Mata,Plazas: 204 Abierto 24 horas  Titularidad: Ayuntamiento de Madrid,0,http://www.madrid.es/sites/v/index.jsp?vgnextchannel=bfa48ab43d6bb410VgnVCM100000171f5a0aRCRD&vgnextoid=271ec2c6e051c010VgnVCM2000000c205a0aRCRD,CALLE NAVALMORAL DE LA MATA,64,,,MADRID,MADRID,28044,7,LAS AGUILAS,10,LATINA,434010,4469941,40.3774442827269,-3.77736653445012,,
13590,Aparcamiento para residentes. Niño Jesús,Plazas: 404 Abierto 24 horas.  Titularidad: Ayuntamiento de Madrid,0,http://www.madrid.es/sites/v/index.jsp?vgnextchannel=bfa48ab43d6bb410VgnVCM100000171f5a0aRCRD&vgnextoid=ee947339ae51c010VgnVCM2000000c205a0aRCRD,PLAZA NIÑO JESUS,4,,,MADRID,MADRID,28009,6,NIÑO JESUS,3,RETIRO,442706,4473581,40.410884376002,-3.67526812561094,,
13519,Aparcamiento para residentes. Nuestra Señora de Gracia,Plazas: 580 Titularidad: Ayuntamiento de Madrid Abierto 24 horas.,0,http://www.madrid.es/sites/v/index.jsp?vgnextchannel=bfa48ab43d6bb410VgnVCM100000171f5a0aRCRD&vgnextoid=b7ff15cbed51c010VgnVCM2000000c205a0aRCRD,CALLE HACIENDA DE PAVONES,204,,,MADRID,MADRID,28030,5,FONTARRON,14,MORATALAZ,445673,4472599,40.40223570989829,-3.6402079527736393,,
13640,Aparcamiento para residentes. Ofelia Nieto,,0,http://www.madrid.es/sites/v/index.jsp?vgnextchannel=bfa48ab43d6bb410VgnVCM100000171f5a0aRCRD&vgnextoid=432d7339ae51c010VgnVCM2000000c205a0aRCRD,CALLE OFELIA NIETO,55,,,MADRID,MADRID,28039,4,VALDEZARZA,9,MONCLOA-ARAVACA,439853,4479205,40.4613441119536,-3.70941469102288,,
24129,Aparcamiento para residentes. Oporto,Plazas: 456Abierto 24 horas  Titularidad: Ayuntamiento de Madrid,0,http://www.madrid.es/sites/v/index.jsp?vgnextchannel=bfa48ab43d6bb410VgnVCM100000171f5a0aRCRD&vgnextoid=9d2f6545f951c010VgnVCM2000000c205a0aRCRD,CALLE ARGÜESO,25,,,MADRID,MADRID,28025,7,ABRANTES,11,CARABANCHEL,438339,4470623,40.3839265550184,-3.72644830573223,,
13543,Aparcamiento para residentes. Ortega y Gasset I,Plazas: 741 Abierto 24 horas  Titularidad: Ayuntamiento de Madrid,0,http://www.madrid.es/sites/v/index.jsp?vgnextchannel=bfa48ab43d6bb410VgnVCM100000171f5a0aRCRD&vgnextoid=bef97339ae51c010VgnVCM2000000c205a0aRCRD,CALLE JOSE ORTEGA Y GASSET,86,,,MADRID,MADRID,28006,5,LISTA,4,SALAMANCA,442949,4475657,40.4296039935558,-3.67259136281143,,
13544,Aparcamiento para residentes. Ortega y Gasset II,Plazas: 549Abierto 24 horas   Titularidad: Ayuntamiento de Madrid,0,http://www.madrid.es/sites/v/index.jsp?vgnextchannel=bfa48ab43d6bb410VgnVCM100000171f5a0aRCRD&vgnextoid=052a7339ae51c010VgnVCM2000000c205a0aRCRD,CALLE JOSE ORTEGA Y GASSET,50,,,MADRID,MADRID,28006,5,LISTA,4,SALAMANCA,442488,4475701,40.4299649140342,-3.6780293892857,,
13549,Aparcamiento para residentes. Ortega y Gasset III,Plazas: 402 Abierto 24 horas  Titularidad: Ayuntamiento de Madrid,0,http://www.madrid.es/sites/v/index.jsp?vgnextchannel=bfa48ab43d6bb410VgnVCM100000171f5a0aRCRD&vgnextoid=5b4a7339ae51c010VgnVCM2000000c205a0aRCRD,CALLE JOSE ORTEGA Y GASSET,39,,,MADRID,MADRID,28006,6,CASTELLANA,4,SALAMANCA,442267,4475732,40.4302318954595,-3.68062850571466,,
13553,Aparcamiento para residentes. Ortega y Gasset IV,Plazas: 369 Abierto 24 horas  Titularidad: Ayuntamiento de Madrid,0,http://www.madrid.es/sites/v/index.jsp?vgnextchannel=bfa48ab43d6bb410VgnVCM100000171f5a0aRCRD&vgnextoid=a17a7339ae51c010VgnVCM2000000c205a0aRCRD,CALLE JOSE ORTEGA Y GASSET,19,,,MADRID,MADRID,28006,6,CASTELLANA,4,SALAMANCA,441956,4475755,40.430415377787,-3.68430325770319,,
167691,Aparcamiento para residentes. Ortiz Campos,Plazas: 151 Abierto 24 horas  Titularidad: Ayuntamiento de Madrid,0,http://www.madrid.es/sites/v/index.jsp?vgnextchannel=bfa48ab43d6bb410VgnVCM100000171f5a0aRCRD&vgnextoid=5c54ff632081c010VgnVCM1000000b205a0aRCRD,CALLE ORTIZ CAMPOS,12,,,MADRID,MADRID,28026,7,PRADOLONGO,12,USERA,439963,4470758,40.3852544887188,-3.70731894817544,,
13510,Aparcamiento para residentes. Osa de la Vega,Plazas: 294 Abierto 24 horas  Titularidad: Ayuntamiento de Madrid,0,http://www.madrid.es/sites/v/index.jsp?vgnextchannel=bfa48ab43d6bb410VgnVCM100000171f5a0aRCRD&vgnextoid=ef6d7339ae51c010VgnVCM2000000c205a0aRCRD,CALLE OSA DE LA VEGA,66,,P,MADRID,MADRID,28044,7,LAS AGUILAS,10,LATINA,434310,4469679,40.3751060611669,-3.77380306182166,,
13628,Aparcamiento para residentes. Pablo Casals,Plazas: 152 Abierto 24 horas  Titularidad: Ayuntamiento de Madrid,0,http://www.madrid.es/sites/v/index.jsp?vgnextchannel=bfa48ab43d6bb410VgnVCM100000171f5a0aRCRD&vgnextoid=369d7339ae51c010VgnVCM2000000c205a0aRCRD,CALLE PABLO CASALS,1,-1,,MADRID,MADRID,28011,2,PUERTA DEL ANGEL,10,LATINA,438539,4473773,40.41231117984961,-3.7243956795334063,,
13591,Aparcamiento para residentes. Pablo Iglesias I,Plazas: 180 Abierto 24 horas  Titularidad: Ayuntamiento de Madrid,0,http://www.madrid.es/sites/v/index.jsp?vgnextchannel=bfa48ab43d6bb410VgnVCM100000171f5a0aRCRD&vgnextoid=2d9115cbed51c010VgnVCM2000000c205a0aRCRD,AVENIDA PABLO IGLESIAS,16,,,MADRID,MADRID,28003,6,VALLEHERMOSO,7,CHAMBERI,440094,4477428,40.445348641721,-3.70640585626876,,
13517,Aparcamiento para residentes. Pablo Iglesias II,Plazas: 504 Abierto 24 horas  Titularidad: Ayuntamiento de Madrid,0,http://www.madrid.es/sites/v/index.jsp?vgnextchannel=bfa48ab43d6bb410VgnVCM100000171f5a0aRCRD&vgnextoid=73c115cbed51c010VgnVCM2000000c205a0aRCRD,AVENIDA PABLO IGLESIAS,40,,,MADRID,MADRID,28039,1,BELLAS VISTAS,6,TETUAN,439854,4477823,40.4488950198199,-3.70927628438264,,
13557,Aparcamiento para residentes. Pan y Toros,Plazas: 226 Abierto 24 horas   Titularidad: Ayuntamiento de Madrid,0,http://www.madrid.es/sites/v/index.jsp?vgnextchannel=bfa48ab43d6bb410VgnVCM100000171f5a0aRCRD&vgnextoid=8cbd7339ae51c010VgnVCM2000000c205a0aRCRD,CALLE PAN Y TOROS,6,-3,,MADRID,MADRID,28041,5,LOS ANGELES,17,VILLAVERDE,441002,4467994,40.3604277740801,-3.69483019856893,,
81799,Aparcamiento para residentes. Panamá,Plazas: 435 Abierto 24 horas   Titularidad: Ayuntamiento de Madrid,0,http://www.madrid.es/sites/v/index.jsp?vgnextchannel=bfa48ab43d6bb410VgnVCM100000171f5a0aRCRD&vgnextoid=7d3ec2c6e051c010VgnVCM2000000c205a0aRCRD,CALLE PANAMA,,,,MADRID,MADRID,28036,4,HISPANOAMERICA,5,CHAMARTIN,441650,4478691,40.45684474123101,-3.688183135413921,,
63333,Aparcamiento para residentes. Parque de Santa María,Plazas: 459 Abierto 24 horas  Titularidad: Ayuntamiento de Madrid,0,http://www.madrid.es/sites/v/index.jsp?vgnextchannel=bfa48ab43d6bb410VgnVCM100000171f5a0aRCRD&vgnextoid=2e2a946be351c010VgnVCM2000000c205a0aRCRD,CALLE SANTA VIRGILIA,22,,,MADRID,MADRID,28033,4,PINAR DEL REY,16,HORTALEZA,445694,4480926,40.47724557129,-3.64067269346952,,
13619,Aparcamiento para residentes. Paseo de Pintor Rosales I,Plazas: 315 Abierto 24 horas  Titularidad: Ayuntamiento de Madrid,0,http://www.madrid.es/sites/v/index.jsp?vgnextchannel=bfa48ab43d6bb410VgnVCM100000171f5a0aRCRD&vgnextoid=79f27339ae51c010VgnVCM2000000c205a0aRCRD,PASEO PINTOR ROSALES,40,,c/v Marqués de Urquijo,MADRID,MADRID,28008,2,ARGUELLES,9,MONCLOA-ARAVACA,438803,4475567,40.42849414397224,-3.721452095219881,,
13620,Aparcamiento para residentes. Paseo de Pintor Rosales II,Plazas: 696 Abierto 24 horas  Titularidad: Ayuntamiento de Madrid,0,http://www.madrid.es/sites/v/index.jsp?vgnextchannel=bfa48ab43d6bb410VgnVCM100000171f5a0aRCRD&vgnextoid=cf137339ae51c010VgnVCM2000000c205a0aRCRD,PASEO PINTOR ROSALES,56,,,MADRID,MADRID,28008,2,ARGUELLES,9,MONCLOA-ARAVACA,438662,4475757,40.430198647546,-3.72312731774697,,
13637,Aparcamiento para residentes. Paseo de Pintor Rosales III,Plazas: 733 Abierto 24 horas  Titularidad: Ayuntamiento de Madrid,0,http://www.madrid.es/sites/v/index.jsp?vgnextchannel=bfa48ab43d6bb410VgnVCM100000171f5a0aRCRD&vgnextoid=16437339ae51c010VgnVCM2000000c205a0aRCRD,PASEO PINTOR ROSALES,1,,c/v Rey Francisco,MADRID,MADRID,28008,1,CASA DE CAMPO,9,MONCLOA-ARAVACA,439208,4475178,40.42501546634872,-3.7166405848374517,,
13592,Aparcamiento para residentes. Pedro Yagüe,Plazas: 198 Abierto 24 horas  Titularidad: Ayuntamiento de Madrid,0,http://www.madrid.es/sites/v/index.jsp?vgnextchannel=bfa48ab43d6bb410VgnVCM100000171f5a0aRCRD&vgnextoid=d2ed7339ae51c010VgnVCM2000000c205a0aRCRD,PASEO PEDRO YAGUE,11,,,MADRID,MADRID,28019,1,COMILLAS,11,CARABANCHEL,439938,4471538,40.392283380781684,-3.7076871303242624,,
13545,Aparcamiento para residentes. Pez Volador,Plazas: 657 Abierto 24 horas  Titularidad: Ayuntamiento de Madrid,0,http://www.madrid.es/sites/v/index.jsp?vgnextchannel=bfa48ab43d6bb410VgnVCM100000171f5a0aRCRD&vgnextoid=290e7339ae51c010VgnVCM2000000c205a0aRCRD,CALLE PEZ VOLADOR,21,,,MADRID,MADRID,28007,3,ESTRELLA,3,RETIRO,443532,4473955,40.4143027370628,-3.66555883072949,,
24131,Aparcamiento para residentes. Peñuelas,Plazas: 239 Abierto 24 horas  Titularidad: Ayuntamiento de Madrid,0,http://www.madrid.es/sites/v/index.jsp?vgnextchannel=bfa48ab43d6bb410VgnVCM100000171f5a0aRCRD&vgnextoid=92916545f951c010VgnVCM2000000c205a0aRCRD,PASEO ESPERANZA,8,,,MADRID,MADRID,28005,2,ACACIAS,2,ARGANZUELA,440126,4472657,40.4023740747468,-3.70557685986881,,
13542,Aparcamiento para residentes. Pico de los Artilleros,Plazas: 195 Abierto 24 horas  Titularidad: Ayuntamiento de Madrid,0,http://www.madrid.es/sites/v/index.jsp?vgnextchannel=bfa48ab43d6bb410VgnVCM100000171f5a0aRCRD&vgnextoid=7f2e7339ae51c010VgnVCM2000000c205a0aRCRD,CALLE PICO DE LOS ARTILLEROS,19,,,MADRID,MADRID,28030,3,MARROQUINA,14,MORATALAZ,445735,4473147,40.4071755730296,-3.63952942755862,,
81802,Aparcamiento para residentes. Pilar de Zaragoza,Plazas: 180 Abierto 24 horas  Titularidad: Ayuntamiento de Madrid,0,http://www.madrid.es/sites/v/index.jsp?vgnextchannel=bfa48ab43d6bb410VgnVCM100000171f5a0aRCRD&vgnextoid=1a8ec2c6e051c010VgnVCM2000000c205a0aRCRD,CALLE PILAR DE ZARAGOZA,54,,,MADRID,MADRID,28028,4,GUINDALERA,4,SALAMANCA,443079,4476336,40.435724728216,-3.67111448995106,,
13593,Aparcamiento para residentes. Pío Baroja I,Plazas: 495 Abierto 24 horas  Titularidad: Ayuntamiento de Madrid,0,http://www.madrid.es/sites/v/index.jsp?vgnextchannel=bfa48ab43d6bb410VgnVCM100000171f5a0aRCRD&vgnextoid=c55e7339ae51c010VgnVCM2000000c205a0aRCRD,CALLE PIO BAROJA,8,,,MADRID,MADRID,28009,6,NIÑO JESUS,3,RETIRO,442768,4473862,40.413417443948205,-3.6745551353834545,,
13595,Aparcamiento para residentes. Platón,Plazas: 218 Abierto 24 horas  Titularidad: Ayuntamiento de Madrid,0,http://www.madrid.es/sites/v/index.jsp?vgnextchannel=bfa48ab43d6bb410VgnVCM100000171f5a0aRCRD&vgnextoid=35c47339ae51c010VgnVCM2000000c205a0aRCRD,PLAZA PLATON,3,,,MADRID,MADRID,28027,5,SAN PASCUAL,15,CIUDAD LINEAL,444686,4477065,40.4424002090821,-3.65223700476275,,
5298038,Aparcamiento para residentes. Poeta Leopoldo de Luis,Plazas: 314 Abierto 24 horas  Titularidad: Ayuntamiento de Madrid,0,http://www.madrid.es/sites/v/index.jsp?vgnextchannel=bfa48ab43d6bb410VgnVCM100000171f5a0aRCRD&vgnextoid=a94e8235c3580210VgnVCM1000000b205a0aRCRD,CALLE NAVARRA,15,,,MADRID,MADRID,28039,1,BELLAS VISTAS,6,TETUAN,440292,4478304,40.45325490763682,-3.7041514805872615,,
13488,Aparcamiento para residentes. Pradillo,Plazas: 143 Abierto 24 horas  Titularidad: Ayuntamiento de Madrid,0,http://www.madrid.es/sites/v/index.jsp?vgnextchannel=bfa48ab43d6bb410VgnVCM100000171f5a0aRCRD&vgnextoid=1c7e7339ae51c010VgnVCM2000000c205a0aRCRD,CALLE MANTUANO,60,,,MADRID,MADRID,28002,3,CIUDAD JARDIN,5,CHAMARTIN,442717,4477750,40.4484340334876,-3.67551341725092,,
7401268,Aparcamiento para residentes. Pradillo II,Plazas: 68 Abierto 24 horas  Titularidad: Ayuntamiento de Madrid  Gestión: Empresa Municipal de Transportes (EMT) (más información),0,http://www.madrid.es/sites/v/index.jsp?vgnextchannel=bfa48ab43d6bb410VgnVCM100000171f5a0aRCRD&vgnextoid=e84b78a52ffd4410VgnVCM1000000b205a0aRCRD,CALLE PRADILLO,39,,,MADRID,MADRID,28002,3,CIUDAD JARDIN,5,CHAMARTIN,443090,4477827,40.44916077138956,-3.6711129463989627,,
13596,Aparcamiento para residentes. Puerto Monasterio,Plazas: 244 Abierto 24 horas  Titularidad: Ayuntamiento de Madrid,0,http://www.madrid.es/sites/v/index.jsp?vgnextchannel=bfa48ab43d6bb410VgnVCM100000171f5a0aRCRD&vgnextoid=62ae7339ae51c010VgnVCM2000000c205a0aRCRD,CALLE PUERTO DEL MONASTERIO,17,-2,,MADRID,MADRID,28053,2,SAN DIEGO,13,PUENTE DE VALLECAS,443659,4471752,40.394466830465,-3.66386420792577,,
13617,Aparcamiento para residentes. Pérez Pillado,Plazas: 531 Abierto 24 horas  Titularidad: Ayuntamiento de Madrid,0,http://www.madrid.es/sites/v/index.jsp?vgnextchannel=bfa48ab43d6bb410VgnVCM100000171f5a0aRCRD&vgnextoid=1ba57339ae51c010VgnVCM2000000c205a0aRCRD,PLAZA TENIENTE DE ALCALDE PEREZ PILLADO,1,,,MADRID,MADRID,28003,6,VALLEHERMOSO,7,CHAMBERI,440046,4476827,40.4399354220316,-3.70691964167697,,
13594,Aparcamiento para residentes. Pío Baroja II,Plazas: 268 Abierto 24 horas  Titularidad: Ayuntamiento de Madrid,0,http://www.madrid.es/sites/v/index.jsp?vgnextchannel=bfa48ab43d6bb410VgnVCM100000171f5a0aRCRD&vgnextoid=0e1015cbed51c010VgnVCM2000000c205a0aRCRD,CALLE LUIS DE HOYOS SAINZ,80,,,MADRID,MADRID,28030,6,VINATEROS,14,MORATALAZ,445835,4472716,40.403298468742435,-3.638310907554055,,
13509,Aparcamiento para residentes. Rafael Finat,Plazas: 311 Abierto 24 horas  Titularidad: Ayuntamiento de Madrid  Teléfono: 91 705 91 23,0,http://www.madrid.es/sites/v/index.jsp?vgnextchannel=bfa48ab43d6bb410VgnVCM100000171f5a0aRCRD&vgnextoid=b8ce7339ae51c010VgnVCM2000000c205a0aRCRD,CALLE RAFAEL FINAT,44,,,MADRID,MADRID,28044,7,LAS AGUILAS,10,LATINA,434595,4470130,40.37919695063071,-3.770494446474416,,
13506,Aparcamiento para residentes. Rafael Salgado,Plazas: 372 Abierto 24 horas  Titularidad: Ayuntamiento de Madrid,0,http://www.madrid.es/sites/v/index.jsp?vgnextchannel=bfa48ab43d6bb410VgnVCM100000171f5a0aRCRD&vgnextoid=0fee7339ae51c010VgnVCM2000000c205a0aRCRD,CALLE RAFAEL SALGADO,13,,,MADRID,MADRID,28036,4,HISPANOAMERICA,5,CHAMARTIN,441676,4478409,40.454300823675,-3.68784469841434,,
24132,Aparcamiento para residentes. Rafaela Ybarra,Plazas: 257 Abierto 24 horas  Titularidad: Ayuntamiento de Madrid,0,http://www.madrid.es/sites/v/index.jsp?vgnextchannel=bfa48ab43d6bb410VgnVCM100000171f5a0aRCRD&vgnextoid=e35f6545f951c010VgnVCM2000000c205a0aRCRD,AVENIDA RAFAELA YBARRA,61,,FRENTE C/ ANTONIO PRIETO,MADRID,MADRID,28026,7,PRADOLONGO,12,USERA,439629,4470237,40.3805393289858,-3.71120392518426,,
183557,Aparcamiento para residentes. Ramales,Plazas: 455 Abierto 24 horas  Titularidad: Ayuntamiento de Madrid,0,http://www.madrid.es/sites/v/index.jsp?vgnextchannel=bfa48ab43d6bb410VgnVCM100000171f5a0aRCRD&vgnextoid=ca57bdc85c01c010VgnVCM2000000c205a0aRCRD,CALLE REQUENA,7,,,MADRID,MADRID,28013,1,PALACIO,1,CENTRO,439513,4474309,40.4172109195211,-3.71296223991581,,
13599,Aparcamiento para residentes. Ramos Carrión,Plazas: 579 Abierto 24 horas  Titularidad: Ayuntamiento de Madrid,0,http://www.madrid.es/sites/v/index.jsp?vgnextchannel=bfa48ab43d6bb410VgnVCM100000171f5a0aRCRD&vgnextoid=ab3f7339ae51c010VgnVCM2000000c205a0aRCRD,CALLE CLARA DEL REY,61,,,MADRID,MADRID,28002,2,PROSPERIDAD,5,CHAMARTIN,443328,4477486,40.44610227199064,-3.6682823210085007,,
13597,Aparcamiento para residentes. Ramón Gómez de la Serna,Plazas: 597 Abierto 24 horas  Titularidad: Ayuntamiento de Madrid,0,http://www.madrid.es/sites/v/index.jsp?vgnextchannel=bfa48ab43d6bb410VgnVCM100000171f5a0aRCRD&vgnextoid=551f7339ae51c010VgnVCM2000000c205a0aRCRD,CALLE RAMON GOMEZ DE LA SERNA,,,Entrada junto al num.143,MADRID,MADRID,28035,3,PEÑA GRANDE,8,FUENCARRAL-EL PARDO,438602,4481670,40.4834555793757,-3.72441525544936,,
13598,Aparcamiento para residentes. Redondela,Plazas: 661 Abierto 24 horas  Titularidad: Ayuntamiento de Madrid,0,http://www.madrid.es/sites/v/index.jsp?vgnextchannel=bfa48ab43d6bb410VgnVCM100000171f5a0aRCRD&vgnextoid=8be47339ae51c010VgnVCM2000000c205a0aRCRD,PLAZA REDONDELA,3,,,MADRID,MADRID,28029,4,EL PILAR,8,FUENCARRAL-EL PARDO,439909,4481030,40.477788844923,-3.70893467217271,,
81827,Aparcamiento para residentes. Reina Victoria,Plazas: 383 Abierto 24 horas  Titularidad: Ayuntamiento de Madrid,0,http://www.madrid.es/sites/v/index.jsp?vgnextchannel=bfa48ab43d6bb410VgnVCM100000171f5a0aRCRD&vgnextoid=a4ecc2c6e051c010VgnVCM2000000c205a0aRCRD,AVENIDA REINA VICTORIA,37,,,MADRID,MADRID,28003,3,CIUDAD UNIVERSITARIA,9,MONCLOA-ARAVACA,439798,4477610,40.446975215559675,-3.7099147475442695,,
13618,Aparcamiento para residentes. Ribadavia,Plazas: 448 Abierto 24 horas  Titularidad: Ayuntamiento de Madrid,0,http://www.madrid.es/sites/v/index.jsp?vgnextchannel=bfa48ab43d6bb410VgnVCM100000171f5a0aRCRD&vgnextoid=f16f7339ae51c010VgnVCM2000000c205a0aRCRD,CALLE RIBADAVIA,47,,,MADRID,MADRID,28029,4,EL PILAR,8,FUENCARRAL-EL PARDO,440332,4480687,40.4728431267083,-3.7051923830735447,,
13491,Aparcamiento para residentes. Ribadeo,Plazas: 221 Abierto 24 horas  Titularidad: Ayuntamiento de Madrid,0,http://www.madrid.es/sites/v/index.jsp?vgnextchannel=bfa48ab43d6bb410VgnVCM100000171f5a0aRCRD&vgnextoid=d1157339ae51c010VgnVCM2000000c205a0aRCRD,PLAZA RIBADEO,1,,,MADRID,MADRID,28029,4,EL PILAR,8,FUENCARRAL-EL PARDO,439807,4480974,40.477275803392914,-3.710124254012666,,
13484,Aparcamiento para residentes. Rutilio Gacís,Plazas: 605 Abierto 24 horas  Titularidad: Ayuntamiento de Madrid,0,http://www.madrid.es/sites/v/index.jsp?vgnextchannel=bfa48ab43d6bb410VgnVCM100000171f5a0aRCRD&vgnextoid=488f7339ae51c010VgnVCM2000000c205a0aRCRD,PLAZA RUTILIO GACI,1,,,MADRID,MADRID,28045,3,CHOPERA,2,ARGANZUELA,440969,4471723,40.394024751267,-3.6955579385658,,
81829,Aparcamiento para residentes. Ríos Rosas,Plazas: 256 Abierto 24 horas  Titularidad: Ayuntamiento de Madrid,0,http://www.madrid.es/sites/v/index.jsp?vgnextchannel=bfa48ab43d6bb410VgnVCM100000171f5a0aRCRD&vgnextoid=60bec2c6e051c010VgnVCM2000000c205a0aRCRD,CALLE RIOS ROSAS,14,,,MADRID,MADRID,28003,5,RIOS ROSAS,7,CHAMBERI,440465,4477044,40.4419186898844,-3.70199797143224,,
13600,Aparcamiento para residentes. San Amaro,Plazas: 220 Abierto 24 horas  Titularidad: Ayuntamiento de Madrid,0,http://www.madrid.es/sites/v/index.jsp?vgnextchannel=bfa48ab43d6bb410VgnVCM100000171f5a0aRCRD&vgnextoid=28357339ae51c010VgnVCM2000000c205a0aRCRD,AVENIDA PRESIDENTE CARMONA,4,,,MADRID,MADRID,28020,2,CUATRO CAMINOS,6,TETUAN,440900,4478326,40.4535000774919,-3.69699044337177,,
13638,Aparcamiento para residentes. San Antonio de la Florida,Plazas: 183 Abierto 24 horas  Titularidad: Ayuntamiento de Madrid,0,http://www.madrid.es/sites/v/index.jsp?vgnextchannel=bfa48ab43d6bb410VgnVCM100000171f5a0aRCRD&vgnextoid=86827339ae51c010VgnVCM2000000c205a0aRCRD,GLORIETA SAN ANTONIO DE LA FLORIDA,3,,,MADRID,MADRID,28008,1,CASA DE CAMPO,9,MONCLOA-ARAVACA,438373,4475222,40.4253575115937,-3.72649206888015,,
13601,Aparcamiento para residentes. San Aureliano,Plazas: 194 Abierto 24 horas  Titularidad: Ayuntamiento de Madrid,0,http://www.madrid.es/sites/v/index.jsp?vgnextchannel=bfa48ab43d6bb410VgnVCM100000171f5a0aRCRD&vgnextoid=9eaf7339ae51c010VgnVCM2000000c205a0aRCRD,CALLE SAN AURELIANO,9,-1,,MADRID,MADRID,28021,1,VILLAVERDE ALTO C.H.,17,VILLAVERDE,439124,4466012,40.3424412349648,-3.71675119626757,,
81830,Aparcamiento para residentes. San Cipriano,Plazas: 149 Abierto 24 horas  Titularidad: Ayuntamiento de Madrid  Teléfonos: 91 032 73 18                    654 651 152,0,http://www.madrid.es/sites/v/index.jsp?vgnextchannel=bfa48ab43d6bb410VgnVCM100000171f5a0aRCRD&vgnextoid=e476bdc85c01c010VgnVCM2000000c205a0aRCRD,CALLE SAN CIPRIANO,66,,,MADRID,MADRID,28032,1,CASCO H.VICALVARO,19,VICALVARO,448931,4472766,40.4039447408273,-3.6018363181584,,
13602,Aparcamiento para residentes. San Francisco de Sales I,Plazas: 284 Abierto 24 horas  Titularidad: Ayuntamiento de Madrid,0,http://www.madrid.es/sites/v/index.jsp?vgnextchannel=bfa48ab43d6bb410VgnVCM100000171f5a0aRCRD&vgnextoid=6c637339ae51c010VgnVCM2000000c205a0aRCRD,PASEO SAN FRANCISCO DE SALES,30,,,MADRID,MADRID,28003,6,VALLEHERMOSO,7,CHAMBERI,439451,4476988,40.44134611193622,-3.7139524382519977,,
81831,Aparcamiento para residentes. San Francisco de Sales II,Plazas: 447 Abierto 24 horas  Titularidad: Ayuntamiento de Madrid,0,http://www.madrid.es/sites/v/index.jsp?vgnextchannel=bfa48ab43d6bb410VgnVCM100000171f5a0aRCRD&vgnextoid=7437bdc85c01c010VgnVCM2000000c205a0aRCRD,PASEO SAN FRANCISCO DE SALES,28,,,MADRID,MADRID,28003,6,VALLEHERMOSO,7,CHAMBERI,439366,4476939,40.4408936787857,-3.71495013522023,,
13603,Aparcamiento para residentes. San Germán,Plazas: 243 Abierto 24 horas  Titularidad: Ayuntamiento de Madrid,0,http://www.madrid.es/sites/v/index.jsp?vgnextchannel=bfa48ab43d6bb410VgnVCM100000171f5a0aRCRD&vgnextoid=7e557339ae51c010VgnVCM2000000c205a0aRCRD,CALLE LAZAGA,10,,,MADRID,MADRID,28020,3,CASTILLEJOS,6,TETUAN,440841,4478789,40.4576703124766,-3.69773067712296,,
13621,Aparcamiento para residentes. San Juan de la Cruz,Plazas: 249 Abierto 24 horas  Titularidad: Ayuntamiento de Madrid,0,http://www.madrid.es/sites/v/index.jsp?vgnextchannel=bfa48ab43d6bb410VgnVCM100000171f5a0aRCRD&vgnextoid=c4857339ae51c010VgnVCM2000000c205a0aRCRD,PLAZA SAN JUAN DE LA CRUZ,3,,,MADRID,MADRID,28003,5,RIOS ROSAS,7,CHAMBERI,441129,4476958,40.4411960257283,-3.69416369753864,,
81833,Aparcamiento para residentes. San Juan de la Salle,Plazas: 254 Abierto 24 horas  Titularidad: Ayuntamiento de Madrid,0,http://www.madrid.es/sites/v/index.jsp?vgnextchannel=bfa48ab43d6bb410VgnVCM100000171f5a0aRCRD&vgnextoid=3b96bdc85c01c010VgnVCM2000000c205a0aRCRD,CALLE SAN JUAN DE LA SALLE,5,,,MADRID,MADRID,28036,1,EL VISO,5,CHAMARTIN,441551,4478026,40.4508410811898,-3.68928953839738,,
13604,Aparcamiento para residentes. San Lamberto,Plazas: 225 Abierto 24 horas  Titularidad: Ayuntamiento de Madrid,0,http://www.madrid.es/sites/v/index.jsp?vgnextchannel=bfa48ab43d6bb410VgnVCM100000171f5a0aRCRD&vgnextoid=e4df7339ae51c010VgnVCM2000000c205a0aRCRD,CALLE SANTA GENOVEVA,9,,,MADRID,MADRID,28017,1,VENTAS,15,CIUDAD LINEAL,444808,4474826,40.4222384804952,-3.65059543081358,,
13622,Aparcamiento para residentes. Sancho de Córdoba,Plazas: 472 Abierto 24 horas  Titularidad: Ayuntamiento de Madrid,0,http://www.madrid.es/sites/v/index.jsp?vgnextchannel=bfa48ab43d6bb410VgnVCM100000171f5a0aRCRD&vgnextoid=42547339ae51c010VgnVCM2000000c205a0aRCRD,PLAZA CORREGIDOR SANCHO DE CORDOBA,3,,,MADRID,MADRID,28030,4,MEDIA LEGUA,14,MORATALAZ,444587,4473200,40.407580520608,-3.65306631591667,,
81836,Aparcamiento para residentes. Santa Cruz,Plazas: 152 Abierto 24 horas  Titularidad: Ayuntamiento de Madrid,0,http://www.madrid.es/sites/v/index.jsp?vgnextchannel=bfa48ab43d6bb410VgnVCM100000171f5a0aRCRD&vgnextoid=1187bdc85c01c010VgnVCM2000000c205a0aRCRD,PLAZA SANTA CRUZ,1,,,MADRID,MADRID,28012,6,SOL,1,CENTRO,440186,4474020,40.41465988668191,-3.7049974834741546,,
13555,Aparcamiento para residentes. Santa Eugenia,Plazas: 530 Abierto 24 horas  Titularidad: Ayuntamiento de Madrid,0,http://www.madrid.es/sites/v/index.jsp?vgnextchannel=bfa48ab43d6bb410VgnVCM100000171f5a0aRCRD&vgnextoid=c9e115cbed51c010VgnVCM2000000c205a0aRCRD,CALLE VIRGEN DE LAS VI&amp;Ntilde;AS,22,,,MADRID,MADRID,28031,2,SANTA EUGENIA,18,VILLA DE VALLECAS,448350,4470250,40.38124145166325,-3.60847198202131,,
13496,Aparcamiento para residentes. Santa Susana,Plazas: 329 Abierto 24 horas  Titularidad: Ayuntamiento de Madrid,0,http://www.madrid.es/sites/v/index.jsp?vgnextchannel=bfa48ab43d6bb410VgnVCM100000171f5a0aRCRD&vgnextoid=3bff7339ae51c010VgnVCM2000000c205a0aRCRD,CALLE SANTA SUSANA,55,,,MADRID,MADRID,28033,4,PINAR DEL REY,16,HORTALEZA,445058,4481241,40.4800454595647,-3.64821017159422,,
13605,Aparcamiento para residentes. Santa Virgilia,Plazas: 330 Abierto 24 horas  Titularidad: Ayuntamiento de Madrid,0,http://www.madrid.es/sites/v/index.jsp?vgnextchannel=bfa48ab43d6bb410VgnVCM100000171f5a0aRCRD&vgnextoid=81207339ae51c010VgnVCM2000000c205a0aRCRD,CALLE SANTA VIRGILIA,12,,,MADRID,MADRID,28033,4,PINAR DEL REY,16,HORTALEZA,445496,4480831,40.4763764474416,-3.64300986674449,,
81838,Aparcamiento para residentes. Santander,Plazas: 221 Abierto 24 horas  Titularidad: Ayuntamiento de Madrid,0,http://www.madrid.es/sites/v/index.jsp?vgnextchannel=bfa48ab43d6bb410VgnVCM100000171f5a0aRCRD&vgnextoid=81c6bdc85c01c010VgnVCM2000000c205a0aRCRD,PASEO SAN FRANCISCO DE SALES,39,,,MADRID,MADRID,28003,6,VALLEHERMOSO,7,CHAMBERI,439798,4477342,40.44455548434968,-3.709895697474288,,
13507,Aparcamiento para residentes. Santo Domingo de Silos,Plazas: 252 Abierto 24 horas  Titularidad: Ayuntamiento de Madrid,0,http://www.madrid.es/sites/v/index.jsp?vgnextchannel=bfa48ab43d6bb410VgnVCM100000171f5a0aRCRD&vgnextoid=d7407339ae51c010VgnVCM2000000c205a0aRCRD,CALLE SANTO DOMINGO DE SILOS,2,,,MADRID,MADRID,28036,1,EL VISO,5,CHAMARTIN,441689,4478031,40.45089702538,-3.6876531842036,,
24138,Aparcamiento para residentes. Sarriá,Plazas: 517 Abierto 24 horas  Titularidad: Ayuntamiento de Madrid,0,http://www.madrid.es/sites/v/index.jsp?vgnextchannel=bfa48ab43d6bb410VgnVCM100000171f5a0aRCRD&vgnextoid=3fd16545f951c010VgnVCM2000000c205a0aRCRD,CALLE SARRIA,67,,,MADRID,MADRID,28029,4,EL PILAR,8,FUENCARRAL-EL PARDO,439452,4480831,40.4759603776235,-3.71430016116734,,
81841,Aparcamiento para residentes. Somontín,Plazas: 282 Abierto 24 horas  Titularidad: Ayuntamiento de Madrid,0,http://www.madrid.es/sites/v/index.jsp?vgnextchannel=bfa48ab43d6bb410VgnVCM100000171f5a0aRCRD&vgnextoid=d7e6bdc85c01c010VgnVCM2000000c205a0aRCRD,CALLE SOMONTIN,59,,,MADRID,MADRID,28033,5,APOSTOL SANTIAGO,16,HORTALEZA,444140,4480927,40.4771584121652,-3.65901066340453,,
13492,Aparcamiento para residentes. Sor Ángela de la Cruz,Plazas: 250 Abierto 24 horas  Titularidad: Ayuntamiento de Madrid,0,http://www.madrid.es/sites/v/index.jsp?vgnextchannel=bfa48ab43d6bb410VgnVCM100000171f5a0aRCRD&vgnextoid=2e607339ae51c010VgnVCM2000000c205a0aRCRD,CALLE SOR ANGELA DE LA CRUZ,27,,,MADRID,MADRID,28020,3,CASTILLEJOS,6,TETUAN,440948,4479031,40.4598568460617,-3.69649048133011,,
13511,Aparcamiento para residentes. Tembleque,Plazas: 562 Abierto 24 horas  Titularidad: Ayuntamiento de Madrid,0,http://www.madrid.es/sites/v/index.jsp?vgnextchannel=bfa48ab43d6bb410VgnVCM100000171f5a0aRCRD&vgnextoid=74907339ae51c010VgnVCM2000000c205a0aRCRD,CALLE TEMBLEQUE,106,,,MADRID,MADRID,28024,4,ALUCHE,10,LATINA,435176,4471515,40.3917164795896,-3.76379557097787,,
13547,Aparcamiento para residentes. Tomelloso,Plazas: 213 Abierto 24 horas  Titularidad: Ayuntamiento de Madrid,0,http://www.madrid.es/sites/v/index.jsp?vgnextchannel=bfa48ab43d6bb410VgnVCM100000171f5a0aRCRD&vgnextoid=cab07339ae51c010VgnVCM2000000c205a0aRCRD,CALLE TOMELLOSO,2,-4,,MADRID,MADRID,28026,4,ALMENDRALES,12,USERA,440748,4470436,40.38241200852226,-3.6980492843158093,,
13489,Aparcamiento para residentes. Uruguay,Plazas: 246 Abierto 24 horas  Titularidad: Ayuntamiento de Madrid,0,http://www.madrid.es/sites/v/index.jsp?vgnextchannel=bfa48ab43d6bb410VgnVCM100000171f5a0aRCRD&vgnextoid=11e07339ae51c010VgnVCM2000000c205a0aRCRD,CALLE URUGUAY,16,,,MADRID,MADRID,28016,4,HISPANOAMERICA,5,CHAMARTIN,442939,4478467,40.45491579186842,-3.6729545093535205,,
13559,Aparcamiento para residentes. Valladolid,Plazas: 421 Abierto 24 horas  Titularidad: Ayuntamiento de Madrid,0,http://www.madrid.es/sites/v/index.jsp?vgnextchannel=bfa48ab43d6bb410VgnVCM100000171f5a0aRCRD&vgnextoid=101215cbed51c010VgnVCM2000000c205a0aRCRD,AVENIDA VALLADOLID,10,,,MADRID,MADRID,28008,1,CASA DE CAMPO,9,MONCLOA-ARAVACA,437993,4475786,40.430403855192,-3.73101574319727,,
24141,Aparcamiento para residentes. Valle de Suchil,Plazas: 1.126 Abierto 24 horas  Titularidad: Ayuntamiento de Madrid,0,http://www.madrid.es/sites/v/index.jsp?vgnextchannel=bfa48ab43d6bb410VgnVCM100000171f5a0aRCRD&vgnextoid=22526545f951c010VgnVCM2000000c205a0aRCRD,CALLE ARAPILES,12,,,MADRID,MADRID,28015,2,ARAPILES,7,CHAMBERI,439962,4476026,40.4327140924793,-3.70783765600394,,
13523,Aparcamiento para residentes. Valparaíso,Plazas: 582 Abierto 24 horas  Titularidad: Ayuntamiento de Madrid,0,http://www.madrid.es/sites/v/index.jsp?vgnextchannel=bfa48ab43d6bb410VgnVCM100000171f5a0aRCRD&vgnextoid=61d57339ae51c010VgnVCM2000000c205a0aRCRD,CALLE HERREROS DE TEJADA,20,,,MADRID,MADRID,28016,4,HISPANOAMERICA,5,CHAMARTIN,442313,4478482,40.455004277244925,-3.680344106308375,,
13623,Aparcamiento para residentes. Vasconcelos,Plazas: 300 Abierto 24 horas  Titularidad: Ayuntamiento de Madrid,0,http://www.madrid.es/sites/v/index.jsp?vgnextchannel=bfa48ab43d6bb410VgnVCM100000171f5a0aRCRD&vgnextoid=f79a7339ae51c010VgnVCM2000000c205a0aRCRD,CALLE JOSE VASCONCELOS,3,,,MADRID,MADRID,28046,6,CASTILLA,5,CHAMARTIN,441789,4480273,40.4710989453583,-3.68668849288348,,
13513,Aparcamiento para residentes. Vicente Gaceo,Plazas: 268 Abierto 24 horas  Titularidad: Ayuntamiento de Madrid,0,http://www.madrid.es/sites/v/index.jsp?vgnextchannel=bfa48ab43d6bb410VgnVCM100000171f5a0aRCRD&vgnextoid=67017339ae51c010VgnVCM2000000c205a0aRCRD,CALLE VICENTE GACEO,19,,,MADRID,MADRID,28029,4,ALMENARA,6,TETUAN,441658,4480512,40.4732429497997,-3.68824841198335,,
13606,Aparcamiento para residentes. Villa Rosa,Plazas: 205 Abierto 24 horas  Titularidad: Ayuntamiento de Madrid,0,http://www.madrid.es/sites/v/index.jsp?vgnextchannel=bfa48ab43d6bb410VgnVCM100000171f5a0aRCRD&vgnextoid=544015cbed51c010VgnVCM2000000c205a0aRCRD,CALLE LAS PEDROÑERAS,42,,,MADRID,MADRID,28043,3,CANILLAS,16,HORTALEZA,446540,4479802,40.4671801613405,-3.63060029600734,,
13607,Aparcamiento para residentes. Villacarlos,Plazas: 316 Abierto 24 horas  Titularidad: Ayuntamiento de Madrid,0,http://www.madrid.es/sites/v/index.jsp?vgnextchannel=bfa48ab43d6bb410VgnVCM100000171f5a0aRCRD&vgnextoid=bd217339ae51c010VgnVCM2000000c205a0aRCRD,VILLACARLOS,10,,,MADRID,MADRID,28032,1,CASCO H.VICALVARO,19,VICALVARO,448420,4473006,40.4060711909959,-3.60788043711702,,
13608,Aparcamiento para residentes. Villaescusa,Plazas: 228 Abierto 24 horas  Titularidad: Ayuntamiento de Madrid,0,http://www.madrid.es/sites/v/index.jsp?vgnextchannel=bfa48ab43d6bb410VgnVCM100000171f5a0aRCRD&vgnextoid=04517339ae51c010VgnVCM2000000c205a0aRCRD,CALLE MATAMOROSA,2,-2,,MADRID,MADRID,28017,2,PUEBLO NUEVO,15,CIUDAD LINEAL,446599,4474501,40.41943124968532,-3.6294595362862476,,
13609,Aparcamiento para residentes. Villamanín I,Plazas: 195 Abierto 24 horas  Titularidad: Ayuntamiento de Madrid,0,http://www.madrid.es/sites/v/index.jsp?vgnextchannel=bfa48ab43d6bb410VgnVCM100000171f5a0aRCRD&vgnextoid=5a717339ae51c010VgnVCM2000000c205a0aRCRD,CALLE VILLAMANIN,37,,,MADRID,MADRID,28011,3,LUCERO,10,LATINA,436074,4473114,40.4061952854288,-3.75337659955903,,
13528,Aparcamiento para residentes. Villamanín II,Plazas: 307 Abierto 24 horas  Titularidad: Ayuntamiento de Madrid,0,http://www.madrid.es/sites/v/index.jsp?vgnextchannel=bfa48ab43d6bb410VgnVCM100000171f5a0aRCRD&vgnextoid=a0a17339ae51c010VgnVCM2000000c205a0aRCRD,CALLE VILLAMANIN,50,,,MADRID,MADRID,28011,3,LUCERO,10,LATINA,436005,4473083,40.4059045304646,-3.75418319828382,,
81866,Aparcamiento para residentes. Virgen de Aránzazu,Plazas: 238 Abierto 24 horas  Titularidad: Ayuntamiento de Madrid,0,http://www.madrid.es/sites/v/index.jsp?vgnextchannel=bfa48ab43d6bb410VgnVCM100000171f5a0aRCRD&vgnextoid=2e07bdc85c01c010VgnVCM2000000c205a0aRCRD,CALLE VIRGEN DE ARANZAZU,23,,,MADRID,MADRID,28034,6,VALVERDE,8,FUENCARRAL-EL PARDO,441537,4481990,40.486552891873416,-3.689816678148437,,
13610,Aparcamiento para residentes. Virgen de La Alegría,Plazas: 138 Abierto 24 horas  Titularidad: Ayuntamiento de Madrid,0,http://www.madrid.es/sites/v/index.jsp?vgnextchannel=bfa48ab43d6bb410VgnVCM100000171f5a0aRCRD&vgnextoid=f6c17339ae51c010VgnVCM2000000c205a0aRCRD,CALLE VIRGEN DE LA ALEGRIA,19,,,MADRID,MADRID,28027,4,CONCEPCION,15,CIUDAD LINEAL,444300,4476142,40.43406048233506,-3.656701823170881,,
13612,Aparcamiento para residentes. Virgen de La Roca I,Plazas: 172 Abierto 24 horas  Titularidad: Ayuntamiento de Madrid,0,http://www.madrid.es/sites/v/index.jsp?vgnextchannel=bfa48ab43d6bb410VgnVCM100000171f5a0aRCRD&vgnextoid=4de17339ae51c010VgnVCM2000000c205a0aRCRD,CALLE VIRGEN DE LA ROCA,4,,,MADRID,MADRID,28027,4,CONCEPCION,15,CIUDAD LINEAL,444173,4476158,40.43419545405507,-3.658200551748118,,
13613,Aparcamiento para residentes. Virgen de La Roca II,Plazas: 203 Abierto 24 horas  Titularidad: Ayuntamiento de Madrid,0,http://www.madrid.es/sites/v/index.jsp?vgnextchannel=bfa48ab43d6bb410VgnVCM100000171f5a0aRCRD&vgnextoid=93127339ae51c010VgnVCM2000000c205a0aRCRD,CALLE VIRGEN DE LA ROCA,6,,,MADRID,MADRID,28027,4,CONCEPCION,15,CIUDAD LINEAL,444240,4476280,40.43529607700225,-3.6574250978353193,,
13639,Aparcamiento para residentes. Virgen de Lourdes,Plazas: 296 Abierto 24 horas  Titularidad: Ayuntamiento de Madrid,0,http://www.madrid.es/sites/v/index.jsp?vgnextchannel=bfa48ab43d6bb410VgnVCM100000171f5a0aRCRD&vgnextoid=e9327339ae51c010VgnVCM2000000c205a0aRCRD,CALLE VIRGEN DE LOURDES,40,,,MADRID,MADRID,28027,4,CONCEPCION,15,CIUDAD LINEAL,444260,4476355,40.43597661134019,-3.657195189643075,,
13611,Aparcamiento para residentes. Virgen del Puerto,Plazas: 793 Abierto 24 horas  Titularidad: Ayuntamiento de Madrid,0,http://www.madrid.es/sites/v/index.jsp?vgnextchannel=bfa48ab43d6bb410VgnVCM100000171f5a0aRCRD&vgnextoid=b2937339ae51c010VgnVCM2000000c205a0aRCRD,PASEO VIRGEN DEL PUERTO,7,,,MADRID,MADRID,28005,1,IMPERIAL,2,ARGANZUELA,438832,4473898,40.4134630479791,-3.72094736367542,,
7397971,Aparcamiento para Residentes. Virgen del Romero,Plazas: 404 Abierto 24 horas  Titularidad: Ayuntamiento de Madrid,0,http://www.madrid.es/sites/v/index.jsp?vgnextchannel=bfa48ab43d6bb410VgnVCM100000171f5a0aRCRD&vgnextoid=bc0259c4f79d4410VgnVCM1000000b205a0aRCRD,PLAZA VIRGEN DEL ROMERO,9,,,MADRID,MADRID,28027,4,CONCEPCION,15,CIUDAD LINEAL,444780,4476616,40.43836519890891,-3.6510870622808604,,
13614,Aparcamiento para residentes. Vista Alegre,Plazas: 402 Abierto 24 horas  Titularidad: Ayuntamiento de Madrid,0,http://www.madrid.es/sites/v/index.jsp?vgnextchannel=bfa48ab43d6bb410VgnVCM100000171f5a0aRCRD&vgnextoid=aa6015cbed51c010VgnVCM2000000c205a0aRCRD,AVENIDA PLAZA DE TOROS,,,,MADRID,MADRID,28025,4,VISTA ALEGRE,11,CARABANCHEL,437212,4470848,40.385867288174,-3.73973577923161,,
13493,Aparcamiento para residentes. Vital Aza,Plazas: 202 Abierto 24 horas  Titularidad: Ayuntamiento de Madrid,0,http://www.madrid.es/sites/v/index.jsp?vgnextchannel=bfa48ab43d6bb410VgnVCM100000171f5a0aRCRD&vgnextoid=30627339ae51c010VgnVCM2000000c205a0aRCRD,CALLE VITAL AZA,10,-2,,MADRID,MADRID,28017,2,PUEBLO NUEVO,15,CIUDAD LINEAL,445345,4475767,40.43074926440721,-3.6443505402381953,,
61831,Aparcamiento para residentes. Vía Carpetana,Plazas: 309 Abierto 24 horas  Titularidad: Ayuntamietno de Madrid,0,http://www.madrid.es/sites/v/index.jsp?vgnextchannel=bfa48ab43d6bb410VgnVCM100000171f5a0aRCRD&vgnextoid=b6dec2c6e051c010VgnVCM2000000c205a0aRCRD,CALLE VIA CARPETANA,209,,,MADRID,MADRID,28047,4,VISTA ALEGRE,11,CARABANCHEL,436812,4471123,40.3883114090483,-3.74448284806632,,
13514,Aparcamiento para residentes. Ángel Carbajo,Plazas: 469 Abierto 24 horas  Titularidad: Ayuntamiento de Madrid,0,http://www.madrid.es/sites/v/index.jsp?vgnextchannel=bfa48ab43d6bb410VgnVCM100000171f5a0aRCRD&vgnextoid=5fd37339ae51c010VgnVCM2000000c205a0aRCRD,PLAZA ANGEL CARBAJO,6,,,MADRID,MADRID,28020,3,CASTILLEJOS,6,TETUAN,441127,4479298,40.4622702219855,-3.69439752488649,,
13463,Aparcamiento público. Plaza de España,Plazas: 800 (hasta 535 abonados) Abierto 24 horas    Titularidad: Ayuntamiento de Madrid  Gestión: Empresa Municipal de Transportes (EMT) (más información),0,http://www.madrid.es/sites/v/index.jsp?vgnextchannel=bfa48ab43d6bb410VgnVCM100000171f5a0aRCRD&vgnextoid=fb977339ae51c010VgnVCM2000000c205a0aRCRD,PLAZA ESPAÑA,1,,,MADRID,MADRID,28008,1,PALACIO,1,CENTRO,439641,4475037,40.4237811996075,-3.71152321262521,,
